<?xml version='1.0' encoding='utf-8'?>
<kml xmlns="http://www.opengis.net/kml/2.2"><Document><name>Trạm khí tượng — tọa độ nguồn chưa hiệu chỉnh</name><Folder><name>Khí tượng</name><Placemark><name>Lai Châu</name><description>P Sông Đà, TX Mường Lay | Tọa độ nguồn: 22004’, 103009’. Chưa xác minh datum và vị trí.</description><Point><coordinates>103.150000000,22.066666667,0</coordinates></Point></Placemark><Placemark><name>Tam Đường</name><description>TX Lai Châu | Tọa độ nguồn: 22025', 103029’. Chưa xác minh datum và vị trí.</description><Point><coordinates>103.483333333,22.416666667,0</coordinates></Point></Placemark><Placemark><name>Mường Tè</name><description>TT Mường Tè, Mường Tè | Tọa độ nguồn: 22022’, 102050’. Chưa xác minh datum và vị trí.</description><Point><coordinates>102.833333333,22.366666667,0</coordinates></Point></Placemark><Placemark><name>Sìn Hồ</name><description>TT Sìn Hồ, Sìn Hồ | Tọa độ nguồn: 22022’, 103014’. Chưa xác minh datum và vị trí.</description><Point><coordinates>103.233333333,22.366666667,0</coordinates></Point></Placemark><Placemark><name>Than Uyên</name><description>TT Than Uyên, Than Uyên | Tọa độ nguồn: 21057’, 103053’. Chưa xác minh datum và vị trí.</description><Point><coordinates>103.883333333,21.950000000,0</coordinates></Point></Placemark><Placemark><name>Điện Biên</name><description>Thanh Xương, Điện Biên | Tọa độ nguồn: 21022’, 103000’. Chưa xác minh datum và vị trí.</description><Point><coordinates>103.000000000,21.366666667,0</coordinates></Point></Placemark><Placemark><name>Tuần Giáo</name><description>TT Tuần Giáo, Tuần Giáo | Tọa độ nguồn: 22035’, 103025’. Chưa xác minh datum và vị trí.</description><Point><coordinates>103.416666667,22.583333333,0</coordinates></Point></Placemark><Placemark><name>Pha Đin</name><description>Toả Tình,Tuần Giáo | Tọa độ nguồn: 21034’, 103031’. Chưa xác minh datum và vị trí.</description><Point><coordinates>103.516666667,21.566666667,0</coordinates></Point></Placemark><Placemark><name>Điện Biên Đông</name><description>TT Điện Biên Đông, Điện Biên Đông | Tọa độ nguồn: 21015’, 103015’. Chưa xác minh datum và vị trí.</description><Point><coordinates>103.250000000,21.250000000,0</coordinates></Point></Placemark><Placemark><name>Tủa Chùa</name><description>Tủa Chùa, Tủa Chùa | Tọa độ nguồn: 21055’, 103020’. Chưa xác minh datum và vị trí.</description><Point><coordinates>103.333333333,21.916666667,0</coordinates></Point></Placemark><Placemark><name>Mường Chà</name><description>TT Mường Chà, Mường Chà | Tọa độ nguồn: 21045', 103009’. Chưa xác minh datum và vị trí.</description><Point><coordinates>103.150000000,21.750000000,0</coordinates></Point></Placemark><Placemark><name>Mường Nhé</name><description>TT Mường Nhé, Mường Nhé | Tọa độ nguồn: 22010’, 102028’. Chưa xác minh datum và vị trí.</description><Point><coordinates>102.466666667,22.166666667,0</coordinates></Point></Placemark><Placemark><name>Sơn La</name><description>P Chiềng Lề, TX Sơn La | Tọa độ nguồn: 21020’, 103054’. Chưa xác minh datum và vị trí.</description><Point><coordinates>103.900000000,21.333333333,0</coordinates></Point></Placemark><Placemark><name>Quỳnh Nhai</name><description>Mường Chiên, Quỳnh Nhai | Tọa độ nguồn: 21051’, 103034’. Chưa xác minh datum và vị trí.</description><Point><coordinates>103.566666667,21.850000000,0</coordinates></Point></Placemark><Placemark><name>Phù Yên</name><description>TT Phù Yên, Phù Yên | Tọa độ nguồn: 21016’, 104038’. Chưa xác minh datum và vị trí.</description><Point><coordinates>104.633333333,21.266666667,0</coordinates></Point></Placemark><Placemark><name>Bắc Yên</name><description>TT Bắc Yên, Bắc Yên | Tọa độ nguồn: 21015’, 104025’. Chưa xác minh datum và vị trí.</description><Point><coordinates>104.416666667,21.250000000,0</coordinates></Point></Placemark><Placemark><name>Cò Nòi</name><description>Cò Nòi, Mai Sơn | Tọa độ nguồn: 21008’, 104009’. Chưa xác minh datum và vị trí.</description><Point><coordinates>104.150000000,21.133333333,0</coordinates></Point></Placemark><Placemark><name>Sông Mã</name><description>TT Sông Mã, Sông Mã | Tọa độ nguồn: 21004’, 103044’. Chưa xác minh datum và vị trí.</description><Point><coordinates>103.733333333,21.066666667,0</coordinates></Point></Placemark><Placemark><name>Yên Châu</name><description>TT Yên Châu, Yên Châu | Tọa độ nguồn: 21003’, 104018’. Chưa xác minh datum và vị trí.</description><Point><coordinates>104.300000000,21.050000000,0</coordinates></Point></Placemark><Placemark><name>Mộc Châu</name><description>TT Mộc Châu, Mộc Châu | Tọa độ nguồn: 20050’, 104041’. Chưa xác minh datum và vị trí.</description><Point><coordinates>104.683333333,20.833333333,0</coordinates></Point></Placemark><Placemark><name>Tạ Khoa (Tà Hộc)</name><description>Tà Hộc, Mai Sơn | Tọa độ nguồn: 21012’, 104021’. Chưa xác minh datum và vị trí.</description><Point><coordinates>104.350000000,21.200000000,0</coordinates></Point></Placemark><Placemark><name>Thuận Châu</name><description>TT Thuận Châu, Thuận Châu  | Tọa độ nguồn: 21028’, 103043’. Chưa xác minh datum và vị trí.</description><Point><coordinates>103.716666667,21.466666667,0</coordinates></Point></Placemark><Placemark><name>Mường La</name><description>Ít Ong, Mường La | Tọa độ nguồn: 21031’, 104002’. Chưa xác minh datum và vị trí.</description><Point><coordinates>104.033333333,21.516666667,0</coordinates></Point></Placemark><Placemark><name>Hoà Bình</name><description>P Tân Thịnh, TX Hoà Bình | Tọa độ nguồn: 20049’, 105020’. Chưa xác minh datum và vị trí.</description><Point><coordinates>105.333333333,20.816666667,0</coordinates></Point></Placemark><Placemark><name>Kim Bôi</name><description>TT Bo, Kim Bôi | Tọa độ nguồn: 20040’, 105032’. Chưa xác minh datum và vị trí.</description><Point><coordinates>105.533333333,20.666666667,0</coordinates></Point></Placemark><Placemark><name>Mai Châu</name><description>TT Mai Châu, Mai Châu | Tọa độ nguồn: 20039’, 105003’. Chưa xác minh datum và vị trí.</description><Point><coordinates>105.050000000,20.650000000,0</coordinates></Point></Placemark><Placemark><name>Chi Nê</name><description>TT Chi Nê, Lạc Thuỷ | Tọa độ nguồn: 20029’, 105047’. Chưa xác minh datum và vị trí.</description><Point><coordinates>105.783333333,20.483333333,0</coordinates></Point></Placemark><Placemark><name>Lạc Sơn</name><description>Liên Vũ, Lạc Sơn | Tọa độ nguồn: 20027’, 105027’. Chưa xác minh datum và vị trí.</description><Point><coordinates>105.450000000,20.450000000,0</coordinates></Point></Placemark><Placemark><name>Lào Cai</name><description>P Cốc Lếu, TX Lào Cai | Tọa độ nguồn: 22030’, 103058’. Chưa xác minh datum và vị trí.</description><Point><coordinates>103.966666667,22.500000000,0</coordinates></Point></Placemark><Placemark><name>Phố Ràng</name><description>Phố Ràng, Bảo Yên | Tọa độ nguồn: 22014’, 104028’. Chưa xác minh datum và vị trí.</description><Point><coordinates>104.466666667,22.233333333,0</coordinates></Point></Placemark><Placemark><name>Sa Pa</name><description>TT Sa Pa, Sa Pa | Tọa độ nguồn: 22021’, 103049’. Chưa xác minh datum và vị trí.</description><Point><coordinates>103.816666667,22.350000000,0</coordinates></Point></Placemark><Placemark><name>Bắc Hà</name><description>TT Bắc Hà, Bắc Hà | Tọa độ nguồn: 22032’, 104017’. Chưa xác minh datum và vị trí.</description><Point><coordinates>104.283333333,22.533333333,0</coordinates></Point></Placemark><Placemark><name>Hoàng Liên Sơn</name><description>Xuân Giao, Bảo Thắng | Tọa độ nguồn: 22019’, 104005’. Chưa xác minh datum và vị trí.</description><Point><coordinates>104.083333333,22.316666667,0</coordinates></Point></Placemark><Placemark><name>Mường Khương</name><description>Mường Khương, Mường Khương | Tọa độ nguồn: 22043’, 104007’. Chưa xác minh datum và vị trí.</description><Point><coordinates>104.116666667,22.716666667,0</coordinates></Point></Placemark><Placemark><name>Yên Bái</name><description>Minh Tân, TX. Yên Bái | Tọa độ nguồn: 21042’, 104052’. Chưa xác minh datum và vị trí.</description><Point><coordinates>104.866666667,21.700000000,0</coordinates></Point></Placemark><Placemark><name>Nghĩa Lộ (Văn Chấn)</name><description>TX Nghĩa Lộ, Văn Chấn | Tọa độ nguồn: 21035’, 104031’. Chưa xác minh datum và vị trí.</description><Point><coordinates>104.516666667,21.583333333,0</coordinates></Point></Placemark><Placemark><name>Lục Yên</name><description>Yên Thế, Lục Yên | Tọa độ nguồn: 22006’, 104043’. Chưa xác minh datum và vị trí.</description><Point><coordinates>104.716666667,22.100000000,0</coordinates></Point></Placemark><Placemark><name>Mù Cang Chải</name><description>Mù Cang Chải, Mù Cang Chải | Tọa độ nguồn: 21052’, 104003’. Chưa xác minh datum và vị trí.</description><Point><coordinates>104.050000000,21.866666667,0</coordinates></Point></Placemark><Placemark><name>Bắc Mê</name><description>Bắc Mê, Bắc Mê | Tọa độ nguồn: 22044’, 105022’. Chưa xác minh datum và vị trí.</description><Point><coordinates>105.366666667,22.733333333,0</coordinates></Point></Placemark><Placemark><name>Bắc Quang</name><description>Tân Quang, Bắc Quang | Tọa độ nguồn: 22030’, 104052’. Chưa xác minh datum và vị trí.</description><Point><coordinates>104.866666667,22.500000000,0</coordinates></Point></Placemark><Placemark><name>Hoàng Su Phì</name><description>Hoàng Su Phì, Hoàng Su Phì | Tọa độ nguồn: 22045’, 104041’. Chưa xác minh datum và vị trí.</description><Point><coordinates>104.683333333,22.750000000,0</coordinates></Point></Placemark><Placemark><name>Hà Giang</name><description>Nguyễn Trãi, TX  Hà Giang | Tọa độ nguồn: 22049’, 104058’. Chưa xác minh datum và vị trí.</description><Point><coordinates>104.966666667,22.816666667,0</coordinates></Point></Placemark><Placemark><name>Phó Bảng</name><description>Phó Bảng, Phó Bảng | Tọa độ nguồn: 23015’, 105011’. Chưa xác minh datum và vị trí.</description><Point><coordinates>105.183333333,23.250000000,0</coordinates></Point></Placemark><Placemark><name>Tuyên Quang</name><description>P Phan Thiết, TX Tuyên Quang | Tọa độ nguồn: 21049’, 105013’. Chưa xác minh datum và vị trí.</description><Point><coordinates>105.216666667,21.816666667,0</coordinates></Point></Placemark><Placemark><name>Chiêm Hoá</name><description>Vĩnh Lộc, Chiêm Hoá | Tọa độ nguồn: 22009’, 105016’. Chưa xác minh datum và vị trí.</description><Point><coordinates>105.266666667,22.150000000,0</coordinates></Point></Placemark><Placemark><name>Na Hang</name><description>Na Hang, Na Hang | Tọa độ nguồn: 22021’, 105023’. Chưa xác minh datum và vị trí.</description><Point><coordinates>105.383333333,22.350000000,0</coordinates></Point></Placemark><Placemark><name>Hàm Yên</name><description>TT Tân Yên, Hàm Yên | Tọa độ nguồn: 22004’, 105002’. Chưa xác minh datum và vị trí.</description><Point><coordinates>105.033333333,22.066666667,0</coordinates></Point></Placemark><Placemark><name>Thái Nguyên</name><description>P Trưng Vương, TP Thái Nguyên | Tọa độ nguồn: 21036’, 105050’. Chưa xác minh datum và vị trí.</description><Point><coordinates>105.833333333,21.600000000,0</coordinates></Point></Placemark><Placemark><name>Định Hoá</name><description>Chợ Chu, Định Hoá | Tọa độ nguồn: 21055’, 105038’. Chưa xác minh datum và vị trí.</description><Point><coordinates>105.633333333,21.916666667,0</coordinates></Point></Placemark><Placemark><name>Bắc Cạn</name><description>Sông Cầu, TX Bắc Cạn | Tọa độ nguồn: 22009’, 105050’. Chưa xác minh datum và vị trí.</description><Point><coordinates>105.833333333,22.150000000,0</coordinates></Point></Placemark><Placemark><name>Ngân Sơn</name><description>Ngân Sơn, Ngân Sơn | Tọa độ nguồn: 22026’, 105059’. Chưa xác minh datum và vị trí.</description><Point><coordinates>105.983333333,22.433333333,0</coordinates></Point></Placemark><Placemark><name>Chợ Đồn</name><description>Bằng Lũng, Chợ Đồn | Tọa độ nguồn: 22009’, 105035’. Chưa xác minh datum và vị trí.</description><Point><coordinates>105.583333333,22.150000000,0</coordinates></Point></Placemark><Placemark><name>Chợ Rã</name><description>Chợ Rã, Chợ Rã | Tọa độ nguồn: 22027’, 105043’. Chưa xác minh datum và vị trí.</description><Point><coordinates>105.716666667,22.450000000,0</coordinates></Point></Placemark><Placemark><name>Việt Trì</name><description>P Tân Dân, TP Việt Trì | Tọa độ nguồn: 21018’, 105025’. Chưa xác minh datum và vị trí.</description><Point><coordinates>105.416666667,21.300000000,0</coordinates></Point></Placemark><Placemark><name>Minh Đài</name><description>Minh Đài, Thanh Sơn | Tọa độ nguồn: 21010’, 105003’. Chưa xác minh datum và vị trí.</description><Point><coordinates>105.050000000,21.166666667,0</coordinates></Point></Placemark><Placemark><name>Phú Hộ</name><description>Phú Hộ, Phong Châu | Tọa độ nguồn: 21027’, 105014’. Chưa xác minh datum và vị trí.</description><Point><coordinates>105.233333333,21.450000000,0</coordinates></Point></Placemark><Placemark><name>Vĩnh Yên</name><description>Bảo Liên, TX Vĩnh Yên | Tọa độ nguồn: 21019’, 105036’. Chưa xác minh datum và vị trí.</description><Point><coordinates>105.600000000,21.316666667,0</coordinates></Point></Placemark><Placemark><name>Tam Đảo</name><description>Tam Đảo, TX Vĩnh Yên | Tọa độ nguồn: 21028’, 105039’. Chưa xác minh datum và vị trí.</description><Point><coordinates>105.650000000,21.466666667,0</coordinates></Point></Placemark><Placemark><name>Cao Bằng</name><description>Sông Hiến, TX Cao Bằng | Tọa độ nguồn: 22040’, 106015’. Chưa xác minh datum và vị trí.</description><Point><coordinates>106.250000000,22.666666667,0</coordinates></Point></Placemark><Placemark><name>Bảo Lạc</name><description>Bảo Lạc, Bảo Lạc | Tọa độ nguồn: 22057’, 105040’. Chưa xác minh datum và vị trí.</description><Point><coordinates>105.666666667,22.950000000,0</coordinates></Point></Placemark><Placemark><name>Nguyên Bình</name><description>Nguyên Bình, Nguyên Bình | Tọa độ nguồn: 22039’, 105057’. Chưa xác minh datum và vị trí.</description><Point><coordinates>105.950000000,22.650000000,0</coordinates></Point></Placemark><Placemark><name>Trùng Khánh</name><description>Trùng Khánh, Trùng Khánh | Tọa độ nguồn: 22050’, 106031’. Chưa xác minh datum và vị trí.</description><Point><coordinates>106.516666667,22.833333333,0</coordinates></Point></Placemark><Placemark><name>Lạng Sơn</name><description>Quang Lạc, TX Lạng Sơn | Tọa độ nguồn: 21050’, 106046’. Chưa xác minh datum và vị trí.</description><Point><coordinates>106.766666667,21.833333333,0</coordinates></Point></Placemark><Placemark><name>Hữu Lũng</name><description>Hữu Lũng, Hữu Lũng | Tọa độ nguồn: 21030’, 106021’. Chưa xác minh datum và vị trí.</description><Point><coordinates>106.350000000,21.500000000,0</coordinates></Point></Placemark><Placemark><name>Thất Khê</name><description>Thất Khê, Tràng Định | Tọa độ nguồn: 22015’, 106028’. Chưa xác minh datum và vị trí.</description><Point><coordinates>106.466666667,22.250000000,0</coordinates></Point></Placemark><Placemark><name>Bắc Sơn</name><description>Bắc Sơn, Bắc Sơn | Tọa độ nguồn: 21054’, 106019’. Chưa xác minh datum và vị trí.</description><Point><coordinates>106.316666667,21.900000000,0</coordinates></Point></Placemark><Placemark><name>Đình Lập</name><description>Đình Lập, Đình Lập | Tọa độ nguồn: 21032’, 107006’. Chưa xác minh datum và vị trí.</description><Point><coordinates>107.100000000,21.533333333,0</coordinates></Point></Placemark><Placemark><name>Mẫu Sơn</name><description>Mẫu Sơn, Cao Lộc | Tọa độ nguồn: 21051’, 106057’. Chưa xác minh datum và vị trí.</description><Point><coordinates>106.950000000,21.850000000,0</coordinates></Point></Placemark><Placemark><name>Bắc Ninh</name><description>Đại Phú, TX Bắc Ninh | Tọa độ nguồn: 21011’, 106005’. Chưa xác minh datum và vị trí.</description><Point><coordinates>106.083333333,21.183333333,0</coordinates></Point></Placemark><Placemark><name>Bắc Giang</name><description>Nguyên Hãn, TX Bắc Giang | Tọa độ nguồn: 21018’, 106013’. Chưa xác minh datum và vị trí.</description><Point><coordinates>106.216666667,21.300000000,0</coordinates></Point></Placemark><Placemark><name>Sơn Động</name><description>An Châu, Sơn Động | Tọa độ nguồn: 21020’, 106051’. Chưa xác minh datum và vị trí.</description><Point><coordinates>106.850000000,21.333333333,0</coordinates></Point></Placemark><Placemark><name>Lục Ngạn</name><description>Chũ, Lục Ngạn | Tọa độ nguồn: 21023’, 106033’. Chưa xác minh datum và vị trí.</description><Point><coordinates>106.550000000,21.383333333,0</coordinates></Point></Placemark><Placemark><name>Hiệp Hoà</name><description>Đức Thắng, Hiệp Hoà | Tọa độ nguồn: 21021’, 105058’. Chưa xác minh datum và vị trí.</description><Point><coordinates>105.966666667,21.350000000,0</coordinates></Point></Placemark><Placemark><name>Bãi Cháy</name><description>Bãi Cháy, TP Hạ Long | Tọa độ nguồn: 20058’, 107004’. Chưa xác minh datum và vị trí.</description><Point><coordinates>107.066666667,20.966666667,0</coordinates></Point></Placemark><Placemark><name>Quảng Hà</name><description>Hà Cối, Quảng Hà | Tọa độ nguồn: 21027’, 107045’. Chưa xác minh datum và vị trí.</description><Point><coordinates>107.750000000,21.450000000,0</coordinates></Point></Placemark><Placemark><name>Cô Tô</name><description>Cô Tô, Cô Tô | Tọa độ nguồn: 20059’, 107046’. Chưa xác minh datum và vị trí.</description><Point><coordinates>107.766666667,20.983333333,0</coordinates></Point></Placemark><Placemark><name>Cửa Ông</name><description>Cửa Ông, Cẩm Phả | Tọa độ nguồn: 21001’, 107021’. Chưa xác minh datum và vị trí.</description><Point><coordinates>107.350000000,21.016666667,0</coordinates></Point></Placemark><Placemark><name>Uông Bí</name><description>Phương Đông, Uông Bí | Tọa độ nguồn: 21002’, 106045’. Chưa xác minh datum và vị trí.</description><Point><coordinates>106.750000000,21.033333333,0</coordinates></Point></Placemark><Placemark><name>Tiên Yên</name><description>Tiên Yên, Tiên Yên | Tọa độ nguồn: 21020’, 107024’. Chưa xác minh datum và vị trí.</description><Point><coordinates>107.400000000,21.333333333,0</coordinates></Point></Placemark><Placemark><name>Móng Cái</name><description>Hải Xuân, Hải Ninh | Tọa độ nguồn: 21031’, 107058’. Chưa xác minh datum và vị trí.</description><Point><coordinates>107.966666667,21.516666667,0</coordinates></Point></Placemark><Placemark><name>Phù Liễn</name><description>Phù Liễn, Q Kiến An | Tọa độ nguồn: 20048’, 106038’. Chưa xác minh datum và vị trí.</description><Point><coordinates>106.633333333,20.800000000,0</coordinates></Point></Placemark><Placemark><name>Bạch Long Vĩ</name><description>Bạch Long Vĩ, Đ Bạch Long Vĩ | Tọa độ nguồn: 20008’, 107043’. Chưa xác minh datum và vị trí.</description><Point><coordinates>107.716666667,20.133333333,0</coordinates></Point></Placemark><Placemark><name>Hòn Dấu</name><description>Hòn Dấu, Đồ Sơn | Tọa độ nguồn: 20040’, 106048’. Chưa xác minh datum và vị trí.</description><Point><coordinates>106.800000000,20.666666667,0</coordinates></Point></Placemark><Placemark><name>Cát Bà</name><description>Cát Bà, Cát Hải | Tọa độ nguồn: 20043’, 107004’. Chưa xác minh datum và vị trí.</description><Point><coordinates>107.066666667,20.716666667,0</coordinates></Point></Placemark><Placemark><name>Láng</name><description>Láng Thượng, Đống Đa | Tọa độ nguồn: 21001’, 105048’. Chưa xác minh datum và vị trí.</description><Point><coordinates>105.800000000,21.016666667,0</coordinates></Point></Placemark><Placemark><name>Hà Nội</name><description>Láng Thượng, Đống Đa | Tọa độ nguồn: 21002’, 105048’. Chưa xác minh datum và vị trí.</description><Point><coordinates>105.800000000,21.033333333,0</coordinates></Point></Placemark><Placemark><name>Ba Vì</name><description>Tản Lĩnh, Ba Vì | Tọa độ nguồn: 21009’, 105025’. Chưa xác minh datum và vị trí.</description><Point><coordinates>105.416666667,21.150000000,0</coordinates></Point></Placemark><Placemark><name>Sơn Tây</name><description>Quang Trung, TX Sơn Tây | Tọa độ nguồn: 21008’, 105030’. Chưa xác minh datum và vị trí.</description><Point><coordinates>105.500000000,21.133333333,0</coordinates></Point></Placemark><Placemark><name>Hà Đông</name><description>Ba La, TX Hà Đông | Tọa độ nguồn: 20058’, 105045’. Chưa xác minh datum và vị trí.</description><Point><coordinates>105.750000000,20.966666667,0</coordinates></Point></Placemark><Placemark><name>Hoài Đức</name><description>TT Nhổn, Hoài Đức | Tọa độ nguồn: 21o04', 105045'. Chưa xác minh datum và vị trí.</description><Point><coordinates>105.750000000,21.066666667,0</coordinates></Point></Placemark><Placemark><name>Hải Dương</name><description>Việt Hoà, TX Hải Dương | Tọa độ nguồn: 20056’, 106018’. Chưa xác minh datum và vị trí.</description><Point><coordinates>106.300000000,20.933333333,0</coordinates></Point></Placemark><Placemark><name>Chí Linh</name><description>Sao Đỏ, Chí Linh | Tọa độ nguồn: 21005’, 106023’. Chưa xác minh datum và vị trí.</description><Point><coordinates>106.383333333,21.083333333,0</coordinates></Point></Placemark><Placemark><name>Hưng Yên</name><description>Hiến Nam, TX Hưng Yên | Tọa độ nguồn: 20039’, 106003’. Chưa xác minh datum và vị trí.</description><Point><coordinates>106.050000000,20.650000000,0</coordinates></Point></Placemark><Placemark><name>Thái Bình</name><description>Vũ Ninh, Kiến Xương | Tọa độ nguồn: 20027’, 106021’. Chưa xác minh datum và vị trí.</description><Point><coordinates>106.350000000,20.450000000,0</coordinates></Point></Placemark><Placemark><name>Ba Lạt</name><description>Nam Phú, Tiền Hải | Tọa độ nguồn: 20017’, 106035’. Chưa xác minh datum và vị trí.</description><Point><coordinates>106.583333333,20.283333333,0</coordinates></Point></Placemark><Placemark><name>Hà Nam</name><description>Thanh Châu, TX Phủ Lý | Tọa độ nguồn: 20033’, 105055’. Chưa xác minh datum và vị trí.</description><Point><coordinates>105.916666667,20.550000000,0</coordinates></Point></Placemark><Placemark><name>Nam Định</name><description>Lộc Hoà, Nam Định | Tọa độ nguồn: 20024’, 106009’. Chưa xác minh datum và vị trí.</description><Point><coordinates>106.150000000,20.400000000,0</coordinates></Point></Placemark><Placemark><name>Văn Lý</name><description>Hải Chính, Hải Hậu | Tọa độ nguồn: 20007’, 106018’. Chưa xác minh datum và vị trí.</description><Point><coordinates>106.300000000,20.116666667,0</coordinates></Point></Placemark><Placemark><name>Ninh Bình</name><description>Đinh Tiên Hoàng, TX Ninh Bình | Tọa độ nguồn: 20014’, 105058’. Chưa xác minh datum và vị trí.</description><Point><coordinates>105.966666667,20.233333333,0</coordinates></Point></Placemark><Placemark><name>Nho Quan</name><description>Nho Quan, Hoàng Long | Tọa độ nguồn: 20020’, 105044’. Chưa xác minh datum và vị trí.</description><Point><coordinates>105.733333333,20.333333333,0</coordinates></Point></Placemark><Placemark><name>Thanh Hoá</name><description>Quảng Thịnh, Quảng Xương | Tọa độ nguồn: 19045’, 105047’. Chưa xác minh datum và vị trí.</description><Point><coordinates>105.783333333,19.750000000,0</coordinates></Point></Placemark><Placemark><name>Yên Định</name><description>Định Tường, Yên Định | Tọa độ nguồn: 19059’, 105040’. Chưa xác minh datum và vị trí.</description><Point><coordinates>105.666666667,19.983333333,0</coordinates></Point></Placemark><Placemark><name>Hồi Xuân</name><description>Hồi Xuân, Quan Hoá | Tọa độ nguồn: 20022’, 105007’. Chưa xác minh datum và vị trí.</description><Point><coordinates>105.116666667,20.366666667,0</coordinates></Point></Placemark><Placemark><name>Như Xuân</name><description>Bến Sung, Như Thanh | Tọa độ nguồn: 19038’, 105034’. Chưa xác minh datum và vị trí.</description><Point><coordinates>105.566666667,19.633333333,0</coordinates></Point></Placemark><Placemark><name>Tĩnh Gia</name><description>Tĩnh Gia, Tĩnh Gia | Tọa độ nguồn: 19027’, 105047’. Chưa xác minh datum và vị trí.</description><Point><coordinates>105.783333333,19.450000000,0</coordinates></Point></Placemark><Placemark><name>Bái Thượng</name><description>Bái Thượng, Thọ Xuân | Tọa độ nguồn: 19054’, 105023’. Chưa xác minh datum và vị trí.</description><Point><coordinates>105.383333333,19.900000000,0</coordinates></Point></Placemark><Placemark><name>Sầm Sơn</name><description>Sầm Sơn, TX Sầm Sơn | Tọa độ nguồn: 19045’, 105054’. Chưa xác minh datum và vị trí.</description><Point><coordinates>105.900000000,19.750000000,0</coordinates></Point></Placemark><Placemark><name>Mường Lát</name><description>Mường Lát, Mường Lát | Tọa độ nguồn: 20033’, 104038’. Chưa xác minh datum và vị trí.</description><Point><coordinates>104.633333333,20.550000000,0</coordinates></Point></Placemark><Placemark><name>Nga Sơn</name><description>Nga Sơn, Nga Sơn | Tọa độ nguồn: 20001’, 105058’. Chưa xác minh datum và vị trí.</description><Point><coordinates>105.966666667,20.016666667,0</coordinates></Point></Placemark><Placemark><name>Cẩm Thuỷ</name><description>Cẩm Thuỷ, Cẩm Thuỷ | Tọa độ nguồn: 20013’, 105028’. Chưa xác minh datum và vị trí.</description><Point><coordinates>105.466666667,20.216666667,0</coordinates></Point></Placemark><Placemark><name>Hòn Mê</name><description>Hòn Mê, Tĩnh Gia | Tọa độ nguồn: 19022’, 105057’. Chưa xác minh datum và vị trí.</description><Point><coordinates>105.950000000,19.366666667,0</coordinates></Point></Placemark><Placemark><name>Vinh</name><description>Cửa Nam, TP Vinh | Tọa độ nguồn: 18040’, 105042’. Chưa xác minh datum và vị trí.</description><Point><coordinates>105.700000000,18.666666667,0</coordinates></Point></Placemark><Placemark><name>Đô Lương</name><description>Đô Lương, Đô Lương | Tọa độ nguồn: 18054’, 105018’. Chưa xác minh datum và vị trí.</description><Point><coordinates>105.300000000,18.900000000,0</coordinates></Point></Placemark><Placemark><name>Tây Hiếu</name><description>Tây Hiếu, Nghĩa Đàn | Tọa độ nguồn: 19019’, 105024’. Chưa xác minh datum và vị trí.</description><Point><coordinates>105.400000000,19.316666667,0</coordinates></Point></Placemark><Placemark><name>Quỳ Châu</name><description>Quỳ Châu, Quỳ Châu | Tọa độ nguồn: 19034’, 105007’. Chưa xác minh datum và vị trí.</description><Point><coordinates>105.116666667,19.566666667,0</coordinates></Point></Placemark><Placemark><name>Quỳ Hợp</name><description>Quỳ Hợp, Quỳ Hợp | Tọa độ nguồn: 19019’, 105009’. Chưa xác minh datum và vị trí.</description><Point><coordinates>105.150000000,19.316666667,0</coordinates></Point></Placemark><Placemark><name>Quỳnh Lưu</name><description>Cầu Giát, Quỳnh Lưu | Tọa độ nguồn: 19010’, 105038’. Chưa xác minh datum và vị trí.</description><Point><coordinates>105.633333333,19.166666667,0</coordinates></Point></Placemark><Placemark><name>Con Cuông</name><description>Con Cuông, Con Cuông | Tọa độ nguồn: 19003’, 104053’. Chưa xác minh datum và vị trí.</description><Point><coordinates>104.883333333,19.050000000,0</coordinates></Point></Placemark><Placemark><name>Hòn Ngư</name><description>Hòn Ngư, TX Cửa Lò | Tọa độ nguồn: 18048’, 105046’. Chưa xác minh datum và vị trí.</description><Point><coordinates>105.766666667,18.800000000,0</coordinates></Point></Placemark><Placemark><name>Tương Dương</name><description>Tương Dương, Tương Dương | Tọa độ nguồn: 19017’, 104026’. Chưa xác minh datum và vị trí.</description><Point><coordinates>104.433333333,19.283333333,0</coordinates></Point></Placemark><Placemark><name>Nghi Kim</name><description>Cửa Nam, TP Vinh | Tọa độ nguồn: 18040’, 105042’. Chưa xác minh datum và vị trí.</description><Point><coordinates>105.700000000,18.666666667,0</coordinates></Point></Placemark><Placemark><name>Mường Xén</name><description>Mường Xén, Mường Xén | Tọa độ nguồn: 19024’, 104010’. Chưa xác minh datum và vị trí.</description><Point><coordinates>104.166666667,19.400000000,0</coordinates></Point></Placemark><Placemark><name>Quế Phong</name><description>Mường Loóng, Quế Phong | Tọa độ nguồn: 19039’, 104047’. Chưa xác minh datum và vị trí.</description><Point><coordinates>104.783333333,19.650000000,0</coordinates></Point></Placemark><Placemark><name>Hà Tĩnh</name><description>Nam Hà, TX Hà Tĩnh | Tọa độ nguồn: 18021’, 105054’. Chưa xác minh datum và vị trí.</description><Point><coordinates>105.900000000,18.350000000,0</coordinates></Point></Placemark><Placemark><name>Kỳ Anh</name><description>TT Kỳ Anh, Kỳ Anh | Tọa độ nguồn: 18005’, 106017’. Chưa xác minh datum và vị trí.</description><Point><coordinates>106.283333333,18.083333333,0</coordinates></Point></Placemark><Placemark><name>Hương Sơn</name><description>Phố Châu, Hương Sơn | Tọa độ nguồn: 18031’, 105026’. Chưa xác minh datum và vị trí.</description><Point><coordinates>105.433333333,18.516666667,0</coordinates></Point></Placemark><Placemark><name>Hoành Sơn</name><description>Kỳ Nam, Kỳ Anh | Tọa độ nguồn: 17057’, 106027’. Chưa xác minh datum và vị trí.</description><Point><coordinates>106.450000000,17.950000000,0</coordinates></Point></Placemark><Placemark><name>Hương Khê</name><description>Hương Phố, Hương Khê | Tọa độ nguồn: 18011’, 105043’. Chưa xác minh datum và vị trí.</description><Point><coordinates>105.716666667,18.183333333,0</coordinates></Point></Placemark><Placemark><name>Đồng Hới</name><description>P Bắc Lý, TX Đồng Hới | Tọa độ nguồn: 17029’, 106036’. Chưa xác minh datum và vị trí.</description><Point><coordinates>106.600000000,17.483333333,0</coordinates></Point></Placemark><Placemark><name>Ba Đồn</name><description>Quảng Thọ, Quảng Trạch | Tọa độ nguồn: 17045’, 106025’. Chưa xác minh datum và vị trí.</description><Point><coordinates>106.416666667,17.750000000,0</coordinates></Point></Placemark><Placemark><name>Tuyên Hoá</name><description>Lê Hoá, Tuyên Hoá | Tọa độ nguồn: 17053’, 106001’. Chưa xác minh datum và vị trí.</description><Point><coordinates>106.016666667,17.883333333,0</coordinates></Point></Placemark><Placemark><name>Lệ Thuỷ</name><description>Kiến Giang, Lệ Thuỷ | Tọa độ nguồn: 17015’, 106048’. Chưa xác minh datum và vị trí.</description><Point><coordinates>106.800000000,17.250000000,0</coordinates></Point></Placemark><Placemark><name>Đông Hà</name><description>TX Đông Hà, TX Đông Hà | Tọa độ nguồn: 16051’, 107005’. Chưa xác minh datum và vị trí.</description><Point><coordinates>107.083333333,16.850000000,0</coordinates></Point></Placemark><Placemark><name>Khe Sanh</name><description>Khe Sanh, Hương Hoá | Tọa độ nguồn: 16038’, 106044’. Chưa xác minh datum và vị trí.</description><Point><coordinates>106.733333333,16.633333333,0</coordinates></Point></Placemark><Placemark><name>Cồn Cỏ</name><description>Cồn Cỏ, Vĩnh Linh | Tọa độ nguồn: 17010’, 107020’. Chưa xác minh datum và vị trí.</description><Point><coordinates>107.333333333,17.166666667,0</coordinates></Point></Placemark><Placemark><name>Huế</name><description>Thuỷ Bằng, Hương Thuỷ | Tọa độ nguồn: 16026’, 107035’. Chưa xác minh datum và vị trí.</description><Point><coordinates>107.583333333,16.433333333,0</coordinates></Point></Placemark><Placemark><name>A Lưới</name><description>Hồng Thượng, A Lưới | Tọa độ nguồn: 16013’, 107017’. Chưa xác minh datum và vị trí.</description><Point><coordinates>107.283333333,16.216666667,0</coordinates></Point></Placemark><Placemark><name>Nam Đông</name><description>Thượng Lộ, Nam Đông | Tọa độ nguồn: 16010’, 107043’. Chưa xác minh datum và vị trí.</description><Point><coordinates>107.716666667,16.166666667,0</coordinates></Point></Placemark><Placemark><name>Tam Kỳ</name><description>Tam An, TX Tam Kỳ | Tọa độ nguồn: 15034’, 108028’. Chưa xác minh datum và vị trí.</description><Point><coordinates>108.466666667,15.566666667,0</coordinates></Point></Placemark><Placemark><name>Trà My</name><description>Trà My, Trà My | Tọa độ nguồn: 15020’, 108015’. Chưa xác minh datum và vị trí.</description><Point><coordinates>108.250000000,15.333333333,0</coordinates></Point></Placemark><Placemark><name>Cù Lao Chàm</name><description>Tân Hiệp, Tân Hiệp | Tọa độ nguồn: 15057’, 108032’. Chưa xác minh datum và vị trí.</description><Point><coordinates>108.533333333,15.950000000,0</coordinates></Point></Placemark><Placemark><name>Khâm Đức</name><description>Khâm Đức, Phước Sơn | Tọa độ nguồn: 15028’, 107049’. Chưa xác minh datum và vị trí.</description><Point><coordinates>107.816666667,15.466666667,0</coordinates></Point></Placemark><Placemark><name>Đà Nẵng</name><description>P Hoà Thuận, TP Đà Nẵng | Tọa độ nguồn: 16002’, 108012’. Chưa xác minh datum và vị trí.</description><Point><coordinates>108.200000000,16.033333333,0</coordinates></Point></Placemark><Placemark><name>Hoàng Sa</name><description>Hoàng Sa, Đảo Hoàng Sa | Tọa độ nguồn: 16033’, 111037’. Chưa xác minh datum và vị trí.</description><Point><coordinates>111.616666667,16.550000000,0</coordinates></Point></Placemark><Placemark><name>Bà Nà</name><description>Hoà Ninh, Hoà Vang | Tọa độ nguồn: 16000’, 108000’. Chưa xác minh datum và vị trí.</description><Point><coordinates>108.000000000,16.000000000,0</coordinates></Point></Placemark><Placemark><name>Quảng Ngãi</name><description>P Trần Phú, TX Quảng Ngãi | Tọa độ nguồn: 15007’, 108048’. Chưa xác minh datum và vị trí.</description><Point><coordinates>108.800000000,15.116666667,0</coordinates></Point></Placemark><Placemark><name>Ba Tơ</name><description>Ba Tơ, Ba Tơ | Tọa độ nguồn: 14046’, 108044’. Chưa xác minh datum và vị trí.</description><Point><coordinates>108.733333333,14.766666667,0</coordinates></Point></Placemark><Placemark><name>Lý Sơn</name><description>Lý Hải, Lý Sơn | Tọa độ nguồn: 15023’, 109009’. Chưa xác minh datum và vị trí.</description><Point><coordinates>109.150000000,15.383333333,0</coordinates></Point></Placemark><Placemark><name>Dung Quất</name><description>Bình Thuận, Bình Sơn | Tọa độ nguồn: 15023’, 108048’. Chưa xác minh datum và vị trí.</description><Point><coordinates>108.800000000,15.383333333,0</coordinates></Point></Placemark><Placemark><name>Phù Mỹ</name><description>Phù Mỹ, Phù Mỹ | Tọa độ nguồn: 14011’, 109004’. Chưa xác minh datum và vị trí.</description><Point><coordinates>109.066666667,14.183333333,0</coordinates></Point></Placemark><Placemark><name>Quy Nhơn</name><description>P Trần Phú, TP Quy Nhơn | Tọa độ nguồn: 13046’, 109013’. Chưa xác minh datum và vị trí.</description><Point><coordinates>109.216666667,13.766666667,0</coordinates></Point></Placemark><Placemark><name>Hoài Nhơn</name><description>Hoài Hảo, Hoài Nhơn | Tọa độ nguồn: 14031’, 109002’. Chưa xác minh datum và vị trí.</description><Point><coordinates>109.033333333,14.516666667,0</coordinates></Point></Placemark><Placemark><name>An Nhơn</name><description>Nhơn Hưng, An Nhơn | Tọa độ nguồn: 13052’, 109007’. Chưa xác minh datum và vị trí.</description><Point><coordinates>109.116666667,13.866666667,0</coordinates></Point></Placemark><Placemark><name>Nha Trang</name><description>P Vĩnh Nguyên, TP Nha Trang | Tọa độ nguồn: 12013’, 109012’. Chưa xác minh datum và vị trí.</description><Point><coordinates>109.200000000,12.216666667,0</coordinates></Point></Placemark><Placemark><name>Cam Ranh</name><description>Ba Ngòi, Cam Ranh | Tọa độ nguồn: 11055’, 109009’. Chưa xác minh datum và vị trí.</description><Point><coordinates>109.150000000,11.916666667,0</coordinates></Point></Placemark><Placemark><name>Trường Sa</name><description>Trường Sa Lớn, Trường Sa | Tọa độ nguồn: 8039’, 111055’. Chưa xác minh datum và vị trí.</description><Point><coordinates>111.916666667,8.650000000,0</coordinates></Point></Placemark><Placemark><name>Song Tử Tây</name><description>Song Tử Tây, Trường Sa | Tọa độ nguồn: 11025’, 114020’. Chưa xác minh datum và vị trí.</description><Point><coordinates>114.333333333,11.416666667,0</coordinates></Point></Placemark><Placemark><name>Sinh Tồn</name><description>Đảo Sinh Tồn, Trường Sa | Tọa độ nguồn: 9o50', 114020’. Chưa xác minh datum và vị trí.</description><Point><coordinates>114.333333333,9.833333333,0</coordinates></Point></Placemark><Placemark><name>Hòn Lớn</name><description>Vạn Thạnh, Hòn Lớn | Tọa độ nguồn: 12033’, 109022’. Chưa xác minh datum và vị trí.</description><Point><coordinates>109.366666667,12.550000000,0</coordinates></Point></Placemark><Placemark><name>Tuy Hoà</name><description>Phường II, TX Tuy Hoà | Tọa độ nguồn: 13005’, 109017’. Chưa xác minh datum và vị trí.</description><Point><coordinates>109.283333333,13.083333333,0</coordinates></Point></Placemark><Placemark><name>Sơn Hoà (Củng Sơn)</name><description>Sơn Bình, Tây Sơn | Tọa độ nguồn: 13003’, 108059’. Chưa xác minh datum và vị trí.</description><Point><coordinates>108.983333333,13.050000000,0</coordinates></Point></Placemark><Placemark><name>Sông cầu</name><description>Sông Cầu, Sông Cầu | Tọa độ nguồn: 13028’, 109014’. Chưa xác minh datum và vị trí.</description><Point><coordinates>109.233333333,13.466666667,0</coordinates></Point></Placemark><Placemark><name>Phan Rang</name><description>Phước Mỹ, TX Phan Rang | Tọa độ nguồn: 11035’, 108059’. Chưa xác minh datum và vị trí.</description><Point><coordinates>108.983333333,11.583333333,0</coordinates></Point></Placemark><Placemark><name>Phan Thiết</name><description>Phú Trinh, TX Phan Thiết | Tọa độ nguồn: 10056’, 108006’. Chưa xác minh datum và vị trí.</description><Point><coordinates>108.100000000,10.933333333,0</coordinates></Point></Placemark><Placemark><name>Hàm Tân</name><description>Tân An, Hàm Tân | Tọa độ nguồn: 10041’, 107046’. Chưa xác minh datum và vị trí.</description><Point><coordinates>107.766666667,10.683333333,0</coordinates></Point></Placemark><Placemark><name>Phú Quý</name><description>Ngũ Phụng, Phú Quý | Tọa độ nguồn: 10031’, 108056’. Chưa xác minh datum và vị trí.</description><Point><coordinates>108.933333333,10.516666667,0</coordinates></Point></Placemark><Placemark><name>Phan Rí</name><description>Phan Hiệp, Bắc Bình | Tọa độ nguồn: 11012’, 108030’. Chưa xác minh datum và vị trí.</description><Point><coordinates>108.500000000,11.200000000,0</coordinates></Point></Placemark><Placemark><name>Kon Tum</name><description>Quyết Tiến, Kon Tum | Tọa độ nguồn: 14020’, 108000’. Chưa xác minh datum và vị trí.</description><Point><coordinates>108.000000000,14.333333333,0</coordinates></Point></Placemark><Placemark><name>Đắc Tô</name><description>Tân Cảnh, Đắk Tô | Tọa độ nguồn: 14039’, 107050’. Chưa xác minh datum và vị trí.</description><Point><coordinates>107.833333333,14.650000000,0</coordinates></Point></Placemark><Placemark><name>Đắk Glei</name><description>Đăk Glei, Đăk Glei | Tọa độ nguồn: 15005’, 107045’. Chưa xác minh datum và vị trí.</description><Point><coordinates>107.750000000,15.083333333,0</coordinates></Point></Placemark><Placemark><name>KonPlông</name><description>KonPlông, KonPlông | Tọa độ nguồn: 14031’, 108015’. Chưa xác minh datum và vị trí.</description><Point><coordinates>108.250000000,14.516666667,0</coordinates></Point></Placemark><Placemark><name>Pleiku</name><description>P Trà Bá, TP Pleiku | Tọa độ nguồn: 13058’, 108001’. Chưa xác minh datum và vị trí.</description><Point><coordinates>108.016666667,13.966666667,0</coordinates></Point></Placemark><Placemark><name>AyunPa</name><description>Ayunpa, Ayunpa | Tọa độ nguồn: 13023’, 108027’. Chưa xác minh datum và vị trí.</description><Point><coordinates>108.450000000,13.383333333,0</coordinates></Point></Placemark><Placemark><name>An Khê</name><description>An Khê, An Khê | Tọa độ nguồn: 13057’, 108039’. Chưa xác minh datum và vị trí.</description><Point><coordinates>108.650000000,13.950000000,0</coordinates></Point></Placemark><Placemark><name>Yaly</name><description>Ia Mơ Nông, Chư Pah | Tọa độ nguồn: 14012’, 107045’. Chưa xác minh datum và vị trí.</description><Point><coordinates>107.750000000,14.200000000,0</coordinates></Point></Placemark><Placemark><name>Đức Cơ</name><description>Chư Ty, Đức Cơ | Tọa độ nguồn: 13046’, 107043’. Chưa xác minh datum và vị trí.</description><Point><coordinates>107.716666667,13.766666667,0</coordinates></Point></Placemark><Placemark><name>Krông Pa</name><description>Phú Túc, Krông Pa | Tọa độ nguồn: 13013’, 108043’. Chưa xác minh datum và vị trí.</description><Point><coordinates>108.716666667,13.216666667,0</coordinates></Point></Placemark><Placemark><name>Phú Nhơn</name><description>Nhơn Hoà, Chư Sê | Tọa độ nguồn: 13036’, 108006’. Chưa xác minh datum và vị trí.</description><Point><coordinates>108.100000000,13.600000000,0</coordinates></Point></Placemark><Placemark><name>Buôn Mê thuột</name><description>Buôn Mê Thuột, Buôn Mê Thuột | Tọa độ nguồn: 12040’, 108003’. Chưa xác minh datum và vị trí.</description><Point><coordinates>108.050000000,12.666666667,0</coordinates></Point></Placemark><Placemark><name>M'ĐRắk</name><description>Cư M’ Ta, M’ Đrắk | Tọa độ nguồn: 12044’, 108046’. Chưa xác minh datum và vị trí.</description><Point><coordinates>108.766666667,12.733333333,0</coordinates></Point></Placemark><Placemark><name>Buôn Hồ</name><description>Buôn Hồ, Krông Buk | Tọa độ nguồn: 12055’, 108016’. Chưa xác minh datum và vị trí.</description><Point><coordinates>108.266666667,12.916666667,0</coordinates></Point></Placemark><Placemark><name>Đắk Mil</name><description>Đắk Lao, Đắk Mil | Tọa độ nguồn: 12027’, 107037’. Chưa xác minh datum và vị trí.</description><Point><coordinates>107.616666667,12.450000000,0</coordinates></Point></Placemark><Placemark><name>Lắk</name><description>Liên Sơn, Lắk | Tọa độ nguồn: 12022’, 108012’. Chưa xác minh datum và vị trí.</description><Point><coordinates>108.200000000,12.366666667,0</coordinates></Point></Placemark><Placemark><name>EaHleo</name><description>Ea Đrăng, Ea Hleo | Tọa độ nguồn: 13013’, 108012’. Chưa xác minh datum và vị trí.</description><Point><coordinates>108.200000000,13.216666667,0</coordinates></Point></Placemark><Placemark><name>Ea Súp</name><description>Ea Súp, Ea Súp | Tọa độ nguồn: 13006’, 107052’. Chưa xác minh datum và vị trí.</description><Point><coordinates>107.866666667,13.100000000,0</coordinates></Point></Placemark><Placemark><name>Ea Phê</name><description>Ea Phê, Krông Păk | Tọa độ nguồn: 12046’, 108020’. Chưa xác minh datum và vị trí.</description><Point><coordinates>108.333333333,12.766666667,0</coordinates></Point></Placemark><Placemark><name>Cư Đrăm</name><description>Cư Đrăm, Krông Bông | Tọa độ nguồn: 12028’, 108035’. Chưa xác minh datum và vị trí.</description><Point><coordinates>108.583333333,12.466666667,0</coordinates></Point></Placemark><Placemark><name>Đắc Nông</name><description>Gia Nghĩa, Đắc Nông | Tọa độ nguồn: 12000’, 107041’. Chưa xác minh datum và vị trí.</description><Point><coordinates>107.683333333,12.000000000,0</coordinates></Point></Placemark><Placemark><name>Quảng Trực</name><description>Quảng Trực, Đăk R’ Lấp | Tọa độ nguồn: 12015’, 107015’. Chưa xác minh datum và vị trí.</description><Point><coordinates>107.250000000,12.250000000,0</coordinates></Point></Placemark><Placemark><name>Đà Lạt</name><description>Phường I, Đà Lạt | Tọa độ nguồn: 11057’, 108027’. Chưa xác minh datum và vị trí.</description><Point><coordinates>108.450000000,11.950000000,0</coordinates></Point></Placemark><Placemark><name>Liên Khương</name><description>Liên Nghĩa, Đức Trọng | Tọa độ nguồn: 11045’, 108023’. Chưa xác minh datum và vị trí.</description><Point><coordinates>108.383333333,11.750000000,0</coordinates></Point></Placemark><Placemark><name>Bảo Lộc</name><description>TX Bảo Lộc | Tọa độ nguồn: 11032’, 107049’. Chưa xác minh datum và vị trí.</description><Point><coordinates>107.816666667,11.533333333,0</coordinates></Point></Placemark><Placemark><name>Cát Tiên</name><description>Gia Viễn, Cát Tiên | Tọa độ nguồn: 11038’, 107024’. Chưa xác minh datum và vị trí.</description><Point><coordinates>107.400000000,11.633333333,0</coordinates></Point></Placemark><Placemark><name>Phước Long</name><description>Sơn Giang, Phước Long | Tọa độ nguồn: 11050’, 106059’. Chưa xác minh datum và vị trí.</description><Point><coordinates>106.983333333,11.833333333,0</coordinates></Point></Placemark><Placemark><name>Đồng Xoài</name><description>Đồng Xoài, Đồng Phú | Tọa độ nguồn: 11032’, 106054’. Chưa xác minh datum và vị trí.</description><Point><coordinates>106.900000000,11.533333333,0</coordinates></Point></Placemark><Placemark><name>Lộc Ninh</name><description>Lộc Ninh, Lộc Ninh | Tọa độ nguồn: 11051’, 106034’. Chưa xác minh datum và vị trí.</description><Point><coordinates>106.566666667,11.850000000,0</coordinates></Point></Placemark><Placemark><name>Thủ Dầu Một</name><description>Thủ Dầu Một, Thủ Dầu Một | Tọa độ nguồn: 10058’, 106038’. Chưa xác minh datum và vị trí.</description><Point><coordinates>106.633333333,10.966666667,0</coordinates></Point></Placemark><Placemark><name>Tây Ninh</name><description>Phường I, Tây Ninh | Tọa độ nguồn: 11020’, 106007’. Chưa xác minh datum và vị trí.</description><Point><coordinates>106.116666667,11.333333333,0</coordinates></Point></Placemark><Placemark><name>Nhà Bè</name><description>Nhà Bè, Nhà Bè | Tọa độ nguồn: 10042’, 106044’. Chưa xác minh datum và vị trí.</description><Point><coordinates>106.733333333,10.700000000,0</coordinates></Point></Placemark><Placemark><name>Tân Sơn Hoà</name><description> | Tọa độ nguồn: 10049', 106040'. Chưa xác minh datum và vị trí.</description><Point><coordinates>106.666666667,10.816666667,0</coordinates></Point></Placemark><Placemark><name>Long Khánh (Xuân Lộc)</name><description>Xuân Lộc, Long Khánh | Tọa độ nguồn: 10056’, 107014’. Chưa xác minh datum và vị trí.</description><Point><coordinates>107.233333333,10.933333333,0</coordinates></Point></Placemark><Placemark><name>Biên Hoà</name><description>P Tân Phong, Biên Hoà | Tọa độ nguồn: 10055’, 106049’. Chưa xác minh datum và vị trí.</description><Point><coordinates>106.816666667,10.916666667,0</coordinates></Point></Placemark><Placemark><name>Tà Lài</name><description>Tà Lài, Tân Phú | Tọa độ nguồn: 11022’, 107022’. Chưa xác minh datum và vị trí.</description><Point><coordinates>107.366666667,11.366666667,0</coordinates></Point></Placemark><Placemark><name>Mỹ Tho</name><description>Tân Mỹ Chánh, TP Mỹ Tho | Tọa độ nguồn: 10021’, 106024’. Chưa xác minh datum và vị trí.</description><Point><coordinates>106.400000000,10.350000000,0</coordinates></Point></Placemark><Placemark><name>Khí tượng môi trường thành phố Vũng Tàu</name><description>Phường VII, TP Vũng Tàu | Tọa độ nguồn: 10022’, 107005’. Chưa xác minh datum và vị trí.</description><Point><coordinates>107.083333333,10.366666667,0</coordinates></Point></Placemark><Placemark><name>Côn Đảo</name><description>TT Côn Đảo, Côn Đảo | Tọa độ nguồn: 8041’, 106036’. Chưa xác minh datum và vị trí.</description><Point><coordinates>106.600000000,8.683333333,0</coordinates></Point></Placemark><Placemark><name>DK1-7</name><description>Huyền Trân | Tọa độ nguồn: 8001’, 110037’. Chưa xác minh datum và vị trí.</description><Point><coordinates>110.616666667,8.016666667,0</coordinates></Point></Placemark><Placemark><name>Xuyên Mộc</name><description>Phước Bữu, Xuân Mộc | Tọa độ nguồn: 10032’, 107024’. Chưa xác minh datum và vị trí.</description><Point><coordinates>107.400000000,10.533333333,0</coordinates></Point></Placemark><Placemark><name>Mộc Hoá</name><description>TT Mộc Hoá, Mộc Hoá | Tọa độ nguồn: 10047’, 105056’. Chưa xác minh datum và vị trí.</description><Point><coordinates>105.933333333,10.783333333,0</coordinates></Point></Placemark><Placemark><name>Tân An</name><description>Phường I, Tân An | Tọa độ nguồn: 10033’, 106024’. Chưa xác minh datum và vị trí.</description><Point><coordinates>106.400000000,10.550000000,0</coordinates></Point></Placemark><Placemark><name>Cao Lãnh</name><description>Phường I, TX Cao Lãnh | Tọa độ nguồn: 10028’, 105038’. Chưa xác minh datum và vị trí.</description><Point><coordinates>105.633333333,10.466666667,0</coordinates></Point></Placemark><Placemark><name>Rạch Giá</name><description>P Vĩnh Thanh, TX Cao Lãnh | Tọa độ nguồn: 10000’, 105004’. Chưa xác minh datum và vị trí.</description><Point><coordinates>105.066666667,10.000000000,0</coordinates></Point></Placemark><Placemark><name>Phú Quốc</name><description>Dương Đông, Phú Quốc | Tọa độ nguồn: 10013’, 103058’. Chưa xác minh datum và vị trí.</description><Point><coordinates>103.966666667,10.216666667,0</coordinates></Point></Placemark><Placemark><name>Thổ Chu</name><description>Thổ Chu, Phú Quốc | Tọa độ nguồn: 9017’, 103008’. Chưa xác minh datum và vị trí.</description><Point><coordinates>103.133333333,9.283333333,0</coordinates></Point></Placemark><Placemark><name>Hà Tiên</name><description>Hà Tiên, Hà Tiên | Tọa độ nguồn: 10023’, 104029’. Chưa xác minh datum và vị trí.</description><Point><coordinates>104.483333333,10.383333333,0</coordinates></Point></Placemark><Placemark><name>Hòn Tre</name><description>Hòn Tre | Tọa độ nguồn: 9057’, 104050’. Chưa xác minh datum và vị trí.</description><Point><coordinates>104.833333333,9.950000000,0</coordinates></Point></Placemark><Placemark><name>Châu Đốc</name><description>Phường B, TX Châu Đốc | Tọa độ nguồn: 10042’, 105008’. Chưa xác minh datum và vị trí.</description><Point><coordinates>105.133333333,10.700000000,0</coordinates></Point></Placemark><Placemark><name>Vĩnh Long</name><description>Phường V, Vĩnh Long | Tọa độ nguồn: 10015’, 105058’. Chưa xác minh datum và vị trí.</description><Point><coordinates>105.966666667,10.250000000,0</coordinates></Point></Placemark><Placemark><name>Ba Tri</name><description>Ba Tri, Ba Tri | Tọa độ nguồn: 10003’, 106036’. Chưa xác minh datum và vị trí.</description><Point><coordinates>106.600000000,10.050000000,0</coordinates></Point></Placemark><Placemark><name>Bến Tre</name><description>Phường VIII, Bến Tre | Tọa độ nguồn: 10014’, 106023’. Chưa xác minh datum và vị trí.</description><Point><coordinates>106.383333333,10.233333333,0</coordinates></Point></Placemark><Placemark><name>Cần Thơ</name><description>P Xuân Khánh, TP Cần Thơ | Tọa độ nguồn: 10002’, 105046’. Chưa xác minh datum và vị trí.</description><Point><coordinates>105.766666667,10.033333333,0</coordinates></Point></Placemark><Placemark><name>Trà Nóc</name><description>Cần Thơ | Tọa độ nguồn: 10006', 105042'. Chưa xác minh datum và vị trí.</description><Point><coordinates>105.700000000,10.100000000,0</coordinates></Point></Placemark><Placemark><name>Sóc Trăng</name><description>Phường II, TX Sóc Trăng | Tọa độ nguồn: 9036’, 105058’. Chưa xác minh datum và vị trí.</description><Point><coordinates>105.966666667,9.600000000,0</coordinates></Point></Placemark><Placemark><name>Bạc Liêu</name><description>Phường VIII, TX Bạc Liêu | Tọa độ nguồn: 9017’, 105043’. Chưa xác minh datum và vị trí.</description><Point><coordinates>105.716666667,9.283333333,0</coordinates></Point></Placemark><Placemark><name>Cà Mau</name><description>Phường VII, TX Cà Mau | Tọa độ nguồn: 9011’, 105009’. Chưa xác minh datum và vị trí.</description><Point><coordinates>105.150000000,9.183333333,0</coordinates></Point></Placemark><Placemark><name>DK1-10</name><description>Bãi Cạn Cà Mau | Tọa độ nguồn: 8000’, 104000’. Chưa xác minh datum và vị trí.</description><Point><coordinates>104.000000000,8.000000000,0</coordinates></Point></Placemark><Placemark><name>U Minh Thượng</name><description>U Minh, U Minh | Tọa độ nguồn: 9023’, 104059’. Chưa xác minh datum và vị trí.</description><Point><coordinates>104.983333333,9.383333333,0</coordinates></Point></Placemark><Placemark><name>Vị Thanh</name><description>Xã Vị Tân, TX Vị Thanh | Tọa độ nguồn: 9049’, 105027’. Chưa xác minh datum và vị trí.</description><Point><coordinates>105.450000000,9.816666667,0</coordinates></Point></Placemark><Placemark><name>Càng Long</name><description>Mỹ Cẩm, Càng Long | Tọa độ nguồn: 9059’, 106012’. Chưa xác minh datum và vị trí.</description><Point><coordinates>106.200000000,9.983333333,0</coordinates></Point></Placemark><Placemark><name>Định An</name><description>Đông  Hải, Duyên Hải | Tọa độ nguồn: 9034’, 106027’. Chưa xác minh datum và vị trí.</description><Point><coordinates>106.450000000,9.566666667,0</coordinates></Point></Placemark></Folder></Document></kml>