<?xml version='1.0' encoding='utf-8'?>
<kml xmlns="http://www.opengis.net/kml/2.2"><Document><name>Trạm thủy văn — tọa độ nguồn chưa hiệu chỉnh</name><Folder><name>Thủy văn</name><Placemark><name>Nậm Giàng</name><description>Chăn Nưa - Sìn Hồ | Tọa độ nguồn: 22o15', 103o15'. Chưa xác minh datum và vị trí.</description><Point><coordinates>103.250000000,22.250000000,0</coordinates></Point></Placemark><Placemark><name>Nà Hừ</name><description>Bum Nưa-Mường Tè | Tọa độ nguồn: 22o24', 102o52'. Chưa xác minh datum và vị trí.</description><Point><coordinates>102.866666667,22.400000000,0</coordinates></Point></Placemark><Placemark><name>Mường Tè</name><description>Mường Tè - Mường Tè | Tọa độ nguồn: 22o18', 102o36'. Chưa xác minh datum và vị trí.</description><Point><coordinates>102.600000000,22.300000000,0</coordinates></Point></Placemark><Placemark><name>Tà Gia</name><description>Tà Gia - Than Uyên | Tọa độ nguồn: 21o47', 103o48'. Chưa xác minh datum và vị trí.</description><Point><coordinates>103.800000000,21.783333333,0</coordinates></Point></Placemark><Placemark><name>Pa Tần</name><description> Pa Tần- Sìn Hồ | Tọa độ nguồn: 22o37', 103o15'. Chưa xác minh datum và vị trí.</description><Point><coordinates>103.250000000,22.616666667,0</coordinates></Point></Placemark><Placemark><name>Mường Mô</name><description> Mường Mô - Mường Tè | Tọa độ nguồn: 22o04', 102o53. Chưa xác minh datum và vị trí.</description><Point><coordinates>102.883333333,22.066666667,0</coordinates></Point></Placemark><Placemark><name>Lai Châu</name><description>Thị Xã Mường Lay | Tọa độ nguồn: 22o04', 103o09'. Chưa xác minh datum và vị trí.</description><Point><coordinates>103.150000000,22.066666667,0</coordinates></Point></Placemark><Placemark><name>Nậm He</name><description>Mường Tùng - Mường Lay | Tọa độ nguồn: 21o57', 103o03'. Chưa xác minh datum và vị trí.</description><Point><coordinates>103.050000000,21.950000000,0</coordinates></Point></Placemark><Placemark><name>Nậm Mức</name><description>Pa Ham - Mường Chà | Tọa độ nguồn: 21o52', 103o17'. Chưa xác minh datum và vị trí.</description><Point><coordinates>103.283333333,21.866666667,0</coordinates></Point></Placemark><Placemark><name>Bản Yên</name><description>Sam Mứn-Điện Biên | Tọa độ nguồn: 21o16', 103o00'. Chưa xác minh datum và vị trí.</description><Point><coordinates>103.000000000,21.266666667,0</coordinates></Point></Placemark><Placemark><name>Tạ Bú</name><description>Tạ Bú - Mường La | Tọa độ nguồn: 21o26', 104o03'. Chưa xác minh datum và vị trí.</description><Point><coordinates>104.050000000,21.433333333,0</coordinates></Point></Placemark><Placemark><name>Xã Là</name><description>Chiềng Khương - Sông Mã | Tọa độ nguồn: 20o56', 103o55'. Chưa xác minh datum và vị trí.</description><Point><coordinates>103.916666667,20.933333333,0</coordinates></Point></Placemark><Placemark><name>Quỳnh Nhai</name><description>Mường Chiên- Quỳnh Nhai | Tọa độ nguồn: 21o50', 103o33'. Chưa xác minh datum và vị trí.</description><Point><coordinates>103.550000000,21.833333333,0</coordinates></Point></Placemark><Placemark><name>Thác Vai</name><description>Tạ Bú - Mường La | Tọa độ nguồn: 21o26', 104o02'. Chưa xác minh datum và vị trí.</description><Point><coordinates>104.033333333,21.433333333,0</coordinates></Point></Placemark><Placemark><name>Phiêng Côn</name><description>Phiêng Côn - Bắc Yên | Tọa độ nguồn: 21o15', 104o28'. Chưa xác minh datum và vị trí.</description><Point><coordinates>104.466666667,21.250000000,0</coordinates></Point></Placemark><Placemark><name>Bó Sinh</name><description>Mường Bám - Thuận Châu | Tọa độ nguồn: 21o21', 103o28'. Chưa xác minh datum và vị trí.</description><Point><coordinates>103.466666667,21.350000000,0</coordinates></Point></Placemark><Placemark><name>Nậm Ty</name><description>Nậm Ty - Sông Mã | Tọa độ nguồn: 21o10', 103o38'. Chưa xác minh datum và vị trí.</description><Point><coordinates>103.633333333,21.166666667,0</coordinates></Point></Placemark><Placemark><name>Nậm Công</name><description>Huổi Một - Sông Mã | Tọa độ nguồn: 21o11', 103o37'. Chưa xác minh datum và vị trí.</description><Point><coordinates>103.616666667,21.183333333,0</coordinates></Point></Placemark><Placemark><name>Phiêng Hiềng</name><description>Quang Huy - Phù Yên | Tọa độ nguồn: 21o12', 104o29'. Chưa xác minh datum và vị trí.</description><Point><coordinates>104.483333333,21.200000000,0</coordinates></Point></Placemark><Placemark><name>Hoà Bình</name><description>Tân Thịnh - TX Hoà Bình | Tọa độ nguồn: 20o49', 105o19'. Chưa xác minh datum và vị trí.</description><Point><coordinates>105.316666667,20.816666667,0</coordinates></Point></Placemark><Placemark><name>Lâm Sơn</name><description>Lâm Sơn - Lương Sơn | Tọa độ nguồn: 20o52', 105o29'. Chưa xác minh datum và vị trí.</description><Point><coordinates>105.483333333,20.866666667,0</coordinates></Point></Placemark><Placemark><name>Hưng Thi</name><description>Hưng Thi - Lạc Thuỷ | Tọa độ nguồn: 20o30', 105o40'. Chưa xác minh datum và vị trí.</description><Point><coordinates>105.666666667,20.500000000,0</coordinates></Point></Placemark><Placemark><name>Lào Cai</name><description>Cốc Lếu - TP Lào Cai | Tọa độ nguồn: 22o30', 103o57'. Chưa xác minh datum và vị trí.</description><Point><coordinates>103.950000000,22.500000000,0</coordinates></Point></Placemark><Placemark><name>Vĩnh Yên</name><description>Thôn Hạ - Vĩnh Yên | Tọa độ nguồn: 22o22', 104o28'. Chưa xác minh datum và vị trí.</description><Point><coordinates>104.466666667,22.366666667,0</coordinates></Point></Placemark><Placemark><name>Ngòi Nhù</name><description>Sơn Thuỷ - Văn Bàn | Tọa độ nguồn: 22o08', 104o16'. Chưa xác minh datum và vị trí.</description><Point><coordinates>104.266666667,22.133333333,0</coordinates></Point></Placemark><Placemark><name>Bảo Hà</name><description>Bảo Hà - Bảo Yên | Tọa độ nguồn: 22o10', 104o21'. Chưa xác minh datum và vị trí.</description><Point><coordinates>104.350000000,22.166666667,0</coordinates></Point></Placemark><Placemark><name>Bảo Yên</name><description>Long Phúc  -Bảo Yên | Tọa độ nguồn: 22o10', 104o35'. Chưa xác minh datum và vị trí.</description><Point><coordinates>104.583333333,22.166666667,0</coordinates></Point></Placemark><Placemark><name>Cốc Ly</name><description>Cốc Ly - Bắc Hà | Tọa độ nguồn: 21o31', 104o12'. Chưa xác minh datum và vị trí.</description><Point><coordinates>104.200000000,21.516666667,0</coordinates></Point></Placemark><Placemark><name>Yên Bái</name><description>Yên Ninh - TX Yên Bái | Tọa độ nguồn: 21o42', 104o51'. Chưa xác minh datum và vị trí.</description><Point><coordinates>104.850000000,21.700000000,0</coordinates></Point></Placemark><Placemark><name>Ngòi Thia</name><description>Đại Phúc - Văn Yên | Tọa độ nguồn: 21o50', 104o39'. Chưa xác minh datum và vị trí.</description><Point><coordinates>104.650000000,21.833333333,0</coordinates></Point></Placemark><Placemark><name>Ngòi Hút</name><description>Đông An-Văn Yên | Tọa độ nguồn: 21o55', 104o30'. Chưa xác minh datum và vị trí.</description><Point><coordinates>104.500000000,21.916666667,0</coordinates></Point></Placemark><Placemark><name>Mù Cang Chải</name><description>Kim Nội - Mù Cang Chải | Tọa độ nguồn: 21o51', 104o04'. Chưa xác minh datum và vị trí.</description><Point><coordinates>104.066666667,21.850000000,0</coordinates></Point></Placemark><Placemark><name>Thác Bà</name><description>Thác Bà - Yên Bình | Tọa độ nguồn: 21o44', 105o03'. Chưa xác minh datum và vị trí.</description><Point><coordinates>105.050000000,21.733333333,0</coordinates></Point></Placemark><Placemark><name>Đạo Đức</name><description>Đạo Đức - Vị Xuyên | Tọa độ nguồn: 22o47', 104o59'. Chưa xác minh datum và vị trí.</description><Point><coordinates>104.983333333,22.783333333,0</coordinates></Point></Placemark><Placemark><name>Hà Giang</name><description>Nguyễn Trãi - T.X Hà Giang | Tọa độ nguồn: 22o49', 104o58'. Chưa xác minh datum và vị trí.</description><Point><coordinates>104.966666667,22.816666667,0</coordinates></Point></Placemark><Placemark><name>Bắc Quang</name><description>Tân Quang - Bắc Quang | Tọa độ nguồn: 22o29', 104o52'. Chưa xác minh datum và vị trí.</description><Point><coordinates>104.866666667,22.483333333,0</coordinates></Point></Placemark><Placemark><name>Vĩnh Tuy</name><description>Vĩnh Tuy - Bắc Quang | Tọa độ nguồn: 22o16', 104o53'. Chưa xác minh datum và vị trí.</description><Point><coordinates>104.883333333,22.266666667,0</coordinates></Point></Placemark><Placemark><name>Bắc Mê</name><description>Yên Phú - Bắc Mê | Tọa độ nguồn: 22o44', 105o22'. Chưa xác minh datum và vị trí.</description><Point><coordinates>105.366666667,22.733333333,0</coordinates></Point></Placemark><Placemark><name>Thuận Hoà</name><description>Thuận Hoà- Vị Xuyên | Tọa độ nguồn: 22o53', 105o00'. Chưa xác minh datum và vị trí.</description><Point><coordinates>105.000000000,22.883333333,0</coordinates></Point></Placemark><Placemark><name>Tân Thịnh</name><description>Việt Hồng - Bắc Quang | Tọa độ nguồn: 22o20', 104o48'. Chưa xác minh datum và vị trí.</description><Point><coordinates>104.800000000,22.333333333,0</coordinates></Point></Placemark><Placemark><name>Minh Tân</name><description>Giàng Chu Pìn - Mèo Vạc | Tọa độ nguồn: 23o10', 105o08'. Chưa xác minh datum và vị trí.</description><Point><coordinates>105.133333333,23.166666667,0</coordinates></Point></Placemark><Placemark><name>Chiêm Hoá</name><description>Vĩnh Lộc - Chiêm Hoá | Tọa độ nguồn: 22o05', 105o16'. Chưa xác minh datum và vị trí.</description><Point><coordinates>105.266666667,22.083333333,0</coordinates></Point></Placemark><Placemark><name>Hàm Yên</name><description>Bình Sa - Hàm Yên | Tọa độ nguồn: 22o03', 105o05'. Chưa xác minh datum và vị trí.</description><Point><coordinates>105.083333333,22.050000000,0</coordinates></Point></Placemark><Placemark><name>Ghềnh Gà</name><description>Tân Long - Yên Sơn | Tọa độ nguồn: 21o51', 105o11'. Chưa xác minh datum và vị trí.</description><Point><coordinates>105.183333333,21.850000000,0</coordinates></Point></Placemark><Placemark><name>Tuyên Quang</name><description>Minh Xuân -TX Tuyên Quang | Tọa độ nguồn: 21o49', 105o13'. Chưa xác minh datum và vị trí.</description><Point><coordinates>105.216666667,21.816666667,0</coordinates></Point></Placemark><Placemark><name>Na Hang</name><description>Vĩnh Yên - Na Hang | Tọa độ nguồn: 22o20', 105o22'. Chưa xác minh datum và vị trí.</description><Point><coordinates>105.366666667,22.333333333,0</coordinates></Point></Placemark><Placemark><name>Sơn Dương</name><description>Thị trấn Sơn Dương | Tọa độ nguồn: 21o42', 105o23'. Chưa xác minh datum và vị trí.</description><Point><coordinates>105.383333333,21.700000000,0</coordinates></Point></Placemark><Placemark><name>Gia Bảy</name><description>Hoàng Văn Thụ -Thái Nguyên | Tọa độ nguồn: 21o35', 105o50'. Chưa xác minh datum và vị trí.</description><Point><coordinates>105.833333333,21.583333333,0</coordinates></Point></Placemark><Placemark><name>Chã</name><description>Đông Cao - Phổ Yên | Tọa độ nguồn: 21o22', 106o54'. Chưa xác minh datum và vị trí.</description><Point><coordinates>106.900000000,21.366666667,0</coordinates></Point></Placemark><Placemark><name>Tân Cương</name><description>Tân Cương - Thái Nguyên | Tọa độ nguồn: 21o32', 105o47'. Chưa xác minh datum và vị trí.</description><Point><coordinates>105.783333333,21.533333333,0</coordinates></Point></Placemark><Placemark><name>Cầu Phà</name><description>P. Sông Cầu TX Bắc Kạn | Tọa độ nguồn: 22009', 105050'. Chưa xác minh datum và vị trí.</description><Point><coordinates>105.833333333,22.150000000,0</coordinates></Point></Placemark><Placemark><name>Thác Riềng</name><description>Xuất Hoá - Bạch Thông | Tọa độ nguồn: 22o05', 105o53'. Chưa xác minh datum và vị trí.</description><Point><coordinates>105.883333333,22.083333333,0</coordinates></Point></Placemark><Placemark><name>Chợ Mới</name><description>Chợ Mới - Phú Lương | Tọa độ nguồn: 21o52', 105o46'. Chưa xác minh datum và vị trí.</description><Point><coordinates>105.766666667,21.866666667,0</coordinates></Point></Placemark><Placemark><name>Đầu Đẳng</name><description>Nam Mẫu - Ba Bể | Tọa độ nguồn: 22o27', 105o34'. Chưa xác minh datum và vị trí.</description><Point><coordinates>105.566666667,22.450000000,0</coordinates></Point></Placemark><Placemark><name>Vụ Quang</name><description>Đoan Hùng - Phú Thọ | Tọa độ nguồn: 21o34', 105o15'. Chưa xác minh datum và vị trí.</description><Point><coordinates>105.250000000,21.566666667,0</coordinates></Point></Placemark><Placemark><name>Thanh Sơn</name><description>Thục Luyện - Thanh Sơn | Tọa độ nguồn: 21o11', 105o09'. Chưa xác minh datum và vị trí.</description><Point><coordinates>105.150000000,21.183333333,0</coordinates></Point></Placemark><Placemark><name>Việt Trì</name><description>Thanh Miếu - Việt Trì | Tọa độ nguồn: 21o17', 105o25'. Chưa xác minh datum và vị trí.</description><Point><coordinates>105.416666667,21.283333333,0</coordinates></Point></Placemark><Placemark><name>Phú Thọ</name><description>Phong Châu - Phú Thọ | Tọa độ nguồn: 21o23', 105o13'. Chưa xác minh datum và vị trí.</description><Point><coordinates>105.216666667,21.383333333,0</coordinates></Point></Placemark><Placemark><name>Quảng Cư</name><description>Quảng Cư - Lập Thạch | Tọa độ nguồn: 21o31', 105o29'. Chưa xác minh datum và vị trí.</description><Point><coordinates>105.483333333,21.516666667,0</coordinates></Point></Placemark><Placemark><name>Bằng Giang</name><description>Nà Phia - Lô Trung | Tọa độ nguồn: 22o39', 106o16'. Chưa xác minh datum và vị trí.</description><Point><coordinates>106.266666667,22.650000000,0</coordinates></Point></Placemark><Placemark><name>Bảo Lạc</name><description>Bảo Lạc - Huyện Bảo Lạc  | Tọa độ nguồn: 22o58', 105o40'. Chưa xác minh datum và vị trí.</description><Point><coordinates>105.666666667,22.966666667,0</coordinates></Point></Placemark><Placemark><name>Vinh Quang</name><description>Vinh Quang - Hoà An | Tọa độ nguồn: 22o43', 106o10'. Chưa xác minh datum và vị trí.</description><Point><coordinates>106.166666667,22.716666667,0</coordinates></Point></Placemark><Placemark><name>Phục Hoà</name><description> Phục Hoà - Quang Hoà | Tọa độ nguồn: 22o31', 106o30'. Chưa xác minh datum và vị trí.</description><Point><coordinates>106.500000000,22.516666667,0</coordinates></Point></Placemark><Placemark><name>Quảng Lâm</name><description>Lý Bôn - Bảo Lâm | Tọa độ nguồn: 22o57', 105o32'. Chưa xác minh datum và vị trí.</description><Point><coordinates>105.533333333,22.950000000,0</coordinates></Point></Placemark><Placemark><name>Pắc Luông</name><description>Lê Chung - Hoà An | Tọa độ nguồn: 22o37', 106o16'. Chưa xác minh datum và vị trí.</description><Point><coordinates>106.266666667,22.616666667,0</coordinates></Point></Placemark><Placemark><name>Lạng Sơn</name><description>Chi Lăng - TX Lạng Sơn | Tọa độ nguồn: 21o50', 106o45'. Chưa xác minh datum và vị trí.</description><Point><coordinates>106.750000000,21.833333333,0</coordinates></Point></Placemark><Placemark><name>Hữu Lũng</name><description>Mẹt - Hữu Lũng | Tọa độ nguồn: 21o31', 106o19'. Chưa xác minh datum và vị trí.</description><Point><coordinates>106.316666667,21.516666667,0</coordinates></Point></Placemark><Placemark><name>Vân Mịch</name><description>Hồng Phong - Bình Gia | Tọa độ nguồn: 22o06', 106o23'. Chưa xác minh datum và vị trí.</description><Point><coordinates>106.383333333,22.100000000,0</coordinates></Point></Placemark><Placemark><name>Tân Việt</name><description>Tân Việt - Văn Lãng | Tọa độ nguồn: 22o10', 106o32'. Chưa xác minh datum và vị trí.</description><Point><coordinates>106.533333333,22.166666667,0</coordinates></Point></Placemark><Placemark><name>Quốc Việt</name><description>Quốc Việt - Tràng Định | Tọa độ nguồn: 22o12', 106o38'. Chưa xác minh datum và vị trí.</description><Point><coordinates>106.633333333,22.200000000,0</coordinates></Point></Placemark><Placemark><name>Phúc Lộc Phương</name><description>Tam Giang - Yên Phong | Tọa độ nguồn: 21o17', 105o55'. Chưa xác minh datum và vị trí.</description><Point><coordinates>105.916666667,21.283333333,0</coordinates></Point></Placemark><Placemark><name>Bến Hồ</name><description>Tân Chi - Tiên Sơn | Tọa độ nguồn: 21o04', 106o04'. Chưa xác minh datum và vị trí.</description><Point><coordinates>106.066666667,21.066666667,0</coordinates></Point></Placemark><Placemark><name>Đáp Cầu</name><description>Vũ Ninh - Bắc Ninh | Tọa độ nguồn: 21o04', 106o05'. Chưa xác minh datum và vị trí.</description><Point><coordinates>106.083333333,21.066666667,0</coordinates></Point></Placemark><Placemark><name>Chũ</name><description>Nghĩa Hồ - Lục Ngạn | Tọa độ nguồn: 21o22', 106o36'. Chưa xác minh datum và vị trí.</description><Point><coordinates>106.600000000,21.366666667,0</coordinates></Point></Placemark><Placemark><name>Cẩm Đàn</name><description>Cẩm Đàn - Sơn Động | Tọa độ nguồn: 21o20', 106o47'. Chưa xác minh datum và vị trí.</description><Point><coordinates>106.783333333,21.333333333,0</coordinates></Point></Placemark><Placemark><name>Cầu Sơn</name><description>Hương Sơn - Lạng Giang | Tọa độ nguồn: 21o26', 106o19'. Chưa xác minh datum và vị trí.</description><Point><coordinates>106.316666667,21.433333333,0</coordinates></Point></Placemark><Placemark><name>Phủ Lạng Thương</name><description>Thọ Xương - Bắc Giang | Tọa độ nguồn: 21o17', 106o11'. Chưa xác minh datum và vị trí.</description><Point><coordinates>106.183333333,21.283333333,0</coordinates></Point></Placemark><Placemark><name>Lục Nam</name><description>Tiên Hưng - Lục Nam | Tọa độ nguồn: 21o17', 106o24'. Chưa xác minh datum và vị trí.</description><Point><coordinates>106.400000000,21.283333333,0</coordinates></Point></Placemark><Placemark><name>Tam Hiệp</name><description>Tam Hiệp - Yên Thế | Tọa độ nguồn: 21o30', 106o08'. Chưa xác minh datum và vị trí.</description><Point><coordinates>106.133333333,21.500000000,0</coordinates></Point></Placemark><Placemark><name>Bình Liêu</name><description>Vô Ngại - Bình Liêu | Tọa độ nguồn: 21o29', 107o22'. Chưa xác minh datum và vị trí.</description><Point><coordinates>107.366666667,21.483333333,0</coordinates></Point></Placemark><Placemark><name>Bến Triều</name><description>Hồng Phong - Đông Triều | Tọa độ nguồn: 21o03', 106o29'. Chưa xác minh datum và vị trí.</description><Point><coordinates>106.483333333,21.050000000,0</coordinates></Point></Placemark><Placemark><name>Đồn Sơn</name><description>Yên Đức - Đông Triều | Tọa độ nguồn: 21o01', 106o36'. Chưa xác minh datum và vị trí.</description><Point><coordinates>106.600000000,21.016666667,0</coordinates></Point></Placemark><Placemark><name>Thanh Sơn</name><description>Thanh Sơn - Ba Chẽ | Tọa độ nguồn: 21o18', 107o15'. Chưa xác minh datum và vị trí.</description><Point><coordinates>107.250000000,21.300000000,0</coordinates></Point></Placemark><Placemark><name>Ka Long</name><description>Hải Hoà - Móng Cái | Tọa độ nguồn: 21o33', 108o00'. Chưa xác minh datum và vị trí.</description><Point><coordinates>108.000000000,21.550000000,0</coordinates></Point></Placemark><Placemark><name>Cửa Cấm</name><description>P.Hùng Vương-Hồng Bàng | Tọa độ nguồn: 20o46', 106o50'. Chưa xác minh datum và vị trí.</description><Point><coordinates>106.833333333,20.766666667,0</coordinates></Point></Placemark><Placemark><name>Trung Trang</name><description>Quang Hưng - An Lão | Tọa độ nguồn: 20o50', 106o30'. Chưa xác minh datum và vị trí.</description><Point><coordinates>106.500000000,20.833333333,0</coordinates></Point></Placemark><Placemark><name>Tiên Tiến</name><description>Tiên Tiến - An Lão | Tọa độ nguồn: 20o45', 106o31'. Chưa xác minh datum và vị trí.</description><Point><coordinates>106.516666667,20.750000000,0</coordinates></Point></Placemark><Placemark><name>Do Nghi</name><description>Tam Hưng - Thuỷ Nguyên | Tọa độ nguồn: 20o56', 106o46'. Chưa xác minh datum và vị trí.</description><Point><coordinates>106.766666667,20.933333333,0</coordinates></Point></Placemark><Placemark><name>Đông Xuyên</name><description>Kiến Thiết - Tiên Lãng | Tọa độ nguồn: 20o41', 106o33'. Chưa xác minh datum và vị trí.</description><Point><coordinates>106.550000000,20.683333333,0</coordinates></Point></Placemark><Placemark><name>Kiến An</name><description>P. Bắc Sơn - TX Kiến An | Tọa độ nguồn: 20o49', 106o37'. Chưa xác minh datum và vị trí.</description><Point><coordinates>106.616666667,20.816666667,0</coordinates></Point></Placemark><Placemark><name>Chanh Chử</name><description>Thắng Thuỷ - Vĩnh Bảo  | Tọa độ nguồn: 20o44', 106o24'. Chưa xác minh datum và vị trí.</description><Point><coordinates>106.400000000,20.733333333,0</coordinates></Point></Placemark><Placemark><name>Cao Kênh</name><description>Hợp Thành - Thuỷ Nguyên | Tọa độ nguồn: 20o56', 106o35'. Chưa xác minh datum và vị trí.</description><Point><coordinates>106.583333333,20.933333333,0</coordinates></Point></Placemark><Placemark><name>Quang Phục</name><description>Quang Phục - Tiên Lãng | Tọa độ nguồn: 20o43', 106o36'. Chưa xác minh datum và vị trí.</description><Point><coordinates>106.600000000,20.716666667,0</coordinates></Point></Placemark><Placemark><name>Cống Rỗ</name><description>Giang Biên - Vĩnh Bảo | Tọa độ nguồn: 20o46', 106o31'. Chưa xác minh datum và vị trí.</description><Point><coordinates>106.516666667,20.766666667,0</coordinates></Point></Placemark><Placemark><name>Hà Nội</name><description>P. Phúc Tân - Q. Hoàn Kiếm | Tọa độ nguồn: 21o01', 105o51'. Chưa xác minh datum và vị trí.</description><Point><coordinates>105.850000000,21.016666667,0</coordinates></Point></Placemark><Placemark><name>Thượng Cát</name><description>Thượng Thanh - Gia Lâm | Tọa độ nguồn: 21o04', 105o52'. Chưa xác minh datum và vị trí.</description><Point><coordinates>105.866666667,21.066666667,0</coordinates></Point></Placemark><Placemark><name>Phú Cường</name><description>Thụy Lôi - Đông Anh | Tọa độ nguồn: 21o10', 105o54'. Chưa xác minh datum và vị trí.</description><Point><coordinates>105.900000000,21.166666667,0</coordinates></Point></Placemark><Placemark><name>Sơn Tây</name><description>Viên Sơn - TX Sơn Tây | Tọa độ nguồn: 21o09', 105o30'. Chưa xác minh datum và vị trí.</description><Point><coordinates>105.500000000,21.150000000,0</coordinates></Point></Placemark><Placemark><name>Trung Hà</name><description>Thái Hoà - Ba Vì | Tọa độ nguồn: 21o14', 105o20'. Chưa xác minh datum và vị trí.</description><Point><coordinates>105.333333333,21.233333333,0</coordinates></Point></Placemark><Placemark><name>Ba Thá</name><description>Viên An - ứng Hoà  | Tọa độ nguồn: 20o48', 105o42'. Chưa xác minh datum và vị trí.</description><Point><coordinates>105.700000000,20.800000000,0</coordinates></Point></Placemark><Placemark><name>Cát Khê</name><description>Hiệp Cát - Nam Sách | Tọa độ nguồn: 21o02', 106o17'. Chưa xác minh datum và vị trí.</description><Point><coordinates>106.283333333,21.033333333,0</coordinates></Point></Placemark><Placemark><name>Bến Bình</name><description>Tân Dân - Chí Linh | Tọa độ nguồn: 21o03', 106o21'. Chưa xác minh datum và vị trí.</description><Point><coordinates>106.350000000,21.050000000,0</coordinates></Point></Placemark><Placemark><name>Bá Nha</name><description>Hợp Đức - Nam Thanh | Tọa độ nguồn: 20o52', 106o27'. Chưa xác minh datum và vị trí.</description><Point><coordinates>106.450000000,20.866666667,0</coordinates></Point></Placemark><Placemark><name>Quảng Đạt</name><description>Ngũ Phúc - Kim Môn | Tọa độ nguồn: 20o57', 106o28'. Chưa xác minh datum và vị trí.</description><Point><coordinates>106.466666667,20.950000000,0</coordinates></Point></Placemark><Placemark><name>An Phụ</name><description>An Phụ - Kim Môn | Tọa độ nguồn: 20o59', 106o30'. Chưa xác minh datum và vị trí.</description><Point><coordinates>106.500000000,20.983333333,0</coordinates></Point></Placemark><Placemark><name>Phú Lương</name><description>Ngọc Châu -TX Hải Dương | Tọa độ nguồn: 20o57', 106o20'. Chưa xác minh datum và vị trí.</description><Point><coordinates>106.333333333,20.950000000,0</coordinates></Point></Placemark><Placemark><name>Phả Lại</name><description>Phả Lại - Chí Linh | Tọa độ nguồn: 21o06', 106o17'. Chưa xác minh datum và vị trí.</description><Point><coordinates>106.283333333,21.100000000,0</coordinates></Point></Placemark><Placemark><name>Hưng Yên</name><description>Lê Hồng Phong- Hưng Yên | Tọa độ nguồn: 20o39', 106o03'. Chưa xác minh datum và vị trí.</description><Point><coordinates>106.050000000,20.650000000,0</coordinates></Point></Placemark><Placemark><name>Triều Dương</name><description>Tân Lễ - Hưng Hà | Tọa độ nguồn: 20o09', 106o07'. Chưa xác minh datum và vị trí.</description><Point><coordinates>106.116666667,20.150000000,0</coordinates></Point></Placemark><Placemark><name>Quyết Chiến</name><description>Bạch Đằng - Đông Hưng | Tọa độ nguồn: 20o30', 106o15'. Chưa xác minh datum và vị trí.</description><Point><coordinates>106.250000000,20.500000000,0</coordinates></Point></Placemark><Placemark><name>Đông Quý</name><description>Đông Trà - Tiền Hải | Tọa độ nguồn: 20o27', 106o32'. Chưa xác minh datum và vị trí.</description><Point><coordinates>106.533333333,20.450000000,0</coordinates></Point></Placemark><Placemark><name>Thái Bình</name><description>Phường Hồng Phong | Tọa độ nguồn: 20o27', 106o20'. Chưa xác minh datum và vị trí.</description><Point><coordinates>106.333333333,20.450000000,0</coordinates></Point></Placemark><Placemark><name>Tiến Đức</name><description>Tiến Đức - Hưng Hà | Tọa độ nguồn: 20o35', 106o06'. Chưa xác minh datum và vị trí.</description><Point><coordinates>106.100000000,20.583333333,0</coordinates></Point></Placemark><Placemark><name>Ba Lạt</name><description>Nam Hồng - Tiền Hải | Tọa độ nguồn: 20o19', 106o31'. Chưa xác minh datum và vị trí.</description><Point><coordinates>106.516666667,20.316666667,0</coordinates></Point></Placemark><Placemark><name>Cống Hệ</name><description>An Bài - Quỳnh Phụ | Tọa độ nguồn: 20o37', 106o28'. Chưa xác minh datum và vị trí.</description><Point><coordinates>106.466666667,20.616666667,0</coordinates></Point></Placemark><Placemark><name>Phủ Lý</name><description>TX Phủ Lý - Hà Nam  | Tọa độ nguồn: 20o30', 105o54'. Chưa xác minh datum và vị trí.</description><Point><coordinates>105.900000000,20.500000000,0</coordinates></Point></Placemark><Placemark><name>Như Trác</name><description>Nhân Đạo - Lý nhân | Tọa độ nguồn: 20o34', 106o07'. Chưa xác minh datum và vị trí.</description><Point><coordinates>106.116666667,20.566666667,0</coordinates></Point></Placemark><Placemark><name>Nam Định</name><description>Nguyễn Trãi - Phan Đình Phùng | Tọa độ nguồn: 20o25', 106o10'. Chưa xác minh datum và vị trí.</description><Point><coordinates>106.166666667,20.416666667,0</coordinates></Point></Placemark><Placemark><name>Trực Phương</name><description>Hợp Thịnh - Phương Định | Tọa độ nguồn: 20o19', 106o18'. Chưa xác minh datum và vị trí.</description><Point><coordinates>106.300000000,20.316666667,0</coordinates></Point></Placemark><Placemark><name>Phú Lễ</name><description>Hải Châu - Hải Hậu | Tọa độ nguồn: 20o03', 106o12'. Chưa xác minh datum và vị trí.</description><Point><coordinates>106.200000000,20.050000000,0</coordinates></Point></Placemark><Placemark><name>Phú Hào</name><description>Nam Điền - Nam Trực | Tọa độ nguồn: 20o10', 106o14'. Chưa xác minh datum và vị trí.</description><Point><coordinates>106.233333333,20.166666667,0</coordinates></Point></Placemark><Placemark><name>Bái Trạch</name><description>Yên Phúc - Ý Yên | Tọa độ nguồn: 20o18', 106o08'. Chưa xác minh datum và vị trí.</description><Point><coordinates>106.133333333,20.300000000,0</coordinates></Point></Placemark><Placemark><name>Bến Đế</name><description>Gia Phú - Gia Viễn | Tọa độ nguồn: 20o21', 105o47'. Chưa xác minh datum và vị trí.</description><Point><coordinates>105.783333333,20.350000000,0</coordinates></Point></Placemark><Placemark><name>Ninh Bình</name><description>Đinh Tiên Hoàng - Ninh Bình | Tọa độ nguồn: 20o15', 105o58'. Chưa xác minh datum và vị trí.</description><Point><coordinates>105.966666667,20.250000000,0</coordinates></Point></Placemark><Placemark><name>Gián Khẩu</name><description>Gia Trần - Gia Viễn | Tọa độ nguồn: 20o19', 105o55'. Chưa xác minh datum và vị trí.</description><Point><coordinates>105.916666667,20.316666667,0</coordinates></Point></Placemark><Placemark><name>Như Tân</name><description>Kim Tân - Kim Sơn | Tọa độ nguồn: 20o01', 106o06'. Chưa xác minh datum và vị trí.</description><Point><coordinates>106.100000000,20.016666667,0</coordinates></Point></Placemark><Placemark><name>Nho Quan</name><description>Lạc Vân - Nho Quan | Tọa độ nguồn: 20o20', 105o46'. Chưa xác minh datum và vị trí.</description><Point><coordinates>105.766666667,20.333333333,0</coordinates></Point></Placemark><Placemark><name>Xuân Khánh</name><description>Xuân Khánh - Thọ Xuân | Tọa độ nguồn: 19o55', 105o34'. Chưa xác minh datum và vị trí.</description><Point><coordinates>105.566666667,19.916666667,0</coordinates></Point></Placemark><Placemark><name>Lang Chánh</name><description>Giao An - Lang Chánh | Tọa độ nguồn: 20o08', 105o15'. Chưa xác minh datum và vị trí.</description><Point><coordinates>105.250000000,20.133333333,0</coordinates></Point></Placemark><Placemark><name>Cẩm Thuỷ</name><description>Cẩm Sơn - Cẩm Thuỷ | Tọa độ nguồn: 20o12', 105o28'. Chưa xác minh datum và vị trí.</description><Point><coordinates>105.466666667,20.200000000,0</coordinates></Point></Placemark><Placemark><name>Lý Nhân</name><description>Yên Phong - Yên Định | Tọa độ nguồn: 20o01', 105o35'. Chưa xác minh datum và vị trí.</description><Point><coordinates>105.583333333,20.016666667,0</coordinates></Point></Placemark><Placemark><name>Mường Lát</name><description>Mường Lát - Thanh Hoá | Tọa độ nguồn: 20o32', 104o34'. Chưa xác minh datum và vị trí.</description><Point><coordinates>104.566666667,20.533333333,0</coordinates></Point></Placemark><Placemark><name>Kim Tân</name><description>Thành Kim - Thạch Thành | Tọa độ nguồn: 20o07', 105o40'. Chưa xác minh datum và vị trí.</description><Point><coordinates>105.666666667,20.116666667,0</coordinates></Point></Placemark><Placemark><name>Thạch Quảng</name><description>Thạch Quảng-Thạch Thành | Tọa độ nguồn: 20o20', 105o31'. Chưa xác minh datum và vị trí.</description><Point><coordinates>105.516666667,20.333333333,0</coordinates></Point></Placemark><Placemark><name>Hồi Xuân</name><description>Hồi Xuân - Quan Hoá | Tọa độ nguồn: 20o22', 105o05'. Chưa xác minh datum và vị trí.</description><Point><coordinates>105.083333333,20.366666667,0</coordinates></Point></Placemark><Placemark><name>Bái Thượng</name><description>Xuân Bái - Thọ Xuân | Tọa độ nguồn: 19o54', 105o22'. Chưa xác minh datum và vị trí.</description><Point><coordinates>105.366666667,19.900000000,0</coordinates></Point></Placemark><Placemark><name>Cửa Đạt</name><description>Xuân Cầm - Thường Xuân | Tọa độ nguồn: 19o52', 105o17'. Chưa xác minh datum và vị trí.</description><Point><coordinates>105.283333333,19.866666667,0</coordinates></Point></Placemark><Placemark><name>Quảng Châu</name><description>Quảng Châu-Quảng Xương | Tọa độ nguồn: 19o46', 105o51'. Chưa xác minh datum và vị trí.</description><Point><coordinates>105.850000000,19.766666667,0</coordinates></Point></Placemark><Placemark><name>Chuối</name><description>Thị trấn Chuối -Nông Cống | Tọa độ nguồn: 19o32', 105o39'. Chưa xác minh datum và vị trí.</description><Point><coordinates>105.650000000,19.533333333,0</coordinates></Point></Placemark><Placemark><name>Giàng</name><description>Thiệu Khánh - Đông Sơn | Tọa độ nguồn: 19o52', 105o45'. Chưa xác minh datum và vị trí.</description><Point><coordinates>105.750000000,19.866666667,0</coordinates></Point></Placemark><Placemark><name>Lèn</name><description>Hà Ngọc - Hà Trung | Tọa độ nguồn: 19o56', 105o59'. Chưa xác minh datum và vị trí.</description><Point><coordinates>105.983333333,19.933333333,0</coordinates></Point></Placemark><Placemark><name>Ngọc Trà</name><description>Quảng Trung - Quảng xương | Tọa độ nguồn: 19o36', 105o46'. Chưa xác minh datum và vị trí.</description><Point><coordinates>105.766666667,19.600000000,0</coordinates></Point></Placemark><Placemark><name>Cụ Thôn</name><description>Hà Phú - Hà Trung | Tọa độ nguồn: 19o58', 105o53'. Chưa xác minh datum và vị trí.</description><Point><coordinates>105.883333333,19.966666667,0</coordinates></Point></Placemark><Placemark><name>Trung Hạ</name><description>Trung Hạ - Quan Hoá | Tọa độ nguồn: 20o17', 105o02'. Chưa xác minh datum và vị trí.</description><Point><coordinates>105.033333333,20.283333333,0</coordinates></Point></Placemark><Placemark><name>Nam Xuân</name><description>Nam Xuân - Quan Hoá | Tọa độ nguồn: 20o22', 105o02'. Chưa xác minh datum và vị trí.</description><Point><coordinates>105.033333333,20.366666667,0</coordinates></Point></Placemark><Placemark><name>Quỳ Châu</name><description> Châu Hội - Quỳ Châu | Tọa độ nguồn: 19o23', 105o08'. Chưa xác minh datum và vị trí.</description><Point><coordinates>105.133333333,19.383333333,0</coordinates></Point></Placemark><Placemark><name>Mường Xén</name><description>Tà Kạ - Kỳ Sơn  | Tọa độ nguồn: 19o24', 104o07'. Chưa xác minh datum và vị trí.</description><Point><coordinates>104.116666667,19.400000000,0</coordinates></Point></Placemark><Placemark><name>Dừa</name><description>Tường Sơn - Anh Sơn | Tọa độ nguồn: 18o59', 105o02'. Chưa xác minh datum và vị trí.</description><Point><coordinates>105.033333333,18.983333333,0</coordinates></Point></Placemark><Placemark><name>Nghĩa Khánh</name><description>Nghĩa Khánh - Nghĩa Đàn | Tọa độ nguồn: 19o26', 105o20'. Chưa xác minh datum và vị trí.</description><Point><coordinates>105.333333333,19.433333333,0</coordinates></Point></Placemark><Placemark><name>Yên Thượng</name><description>Thanh Yên- Thanh Chương | Tọa độ nguồn: 18o41', 105o23'. Chưa xác minh datum và vị trí.</description><Point><coordinates>105.383333333,18.683333333,0</coordinates></Point></Placemark><Placemark><name>Thạch Giám</name><description>Thạch Giám-Tương Dương | Tọa độ nguồn: 19o17', 104o20'. Chưa xác minh datum và vị trí.</description><Point><coordinates>104.333333333,19.283333333,0</coordinates></Point></Placemark><Placemark><name>Đô Lương</name><description>Ba Ra - Đô Lương | Tọa độ nguồn: 18o54', 105o17'. Chưa xác minh datum và vị trí.</description><Point><coordinates>105.283333333,18.900000000,0</coordinates></Point></Placemark><Placemark><name>Nam Đàn</name><description>Thị trấn Nam Đàn | Tọa độ nguồn: 18o42', 105o29'. Chưa xác minh datum và vị trí.</description><Point><coordinates>105.483333333,18.700000000,0</coordinates></Point></Placemark><Placemark><name>Cửa Hội</name><description>Nghi Hải - Nghi Lộc | Tọa độ nguồn: 18o45', 105o43'. Chưa xác minh datum và vị trí.</description><Point><coordinates>105.716666667,18.750000000,0</coordinates></Point></Placemark><Placemark><name>Chợ Tràng</name><description>Hưng Phú - Hưng Nguyên | Tọa độ nguồn: 18o34', 105o38'. Chưa xác minh datum và vị trí.</description><Point><coordinates>105.633333333,18.566666667,0</coordinates></Point></Placemark><Placemark><name>Con Cuông</name><description>Chi Khê - Con Cuông | Tọa độ nguồn: 19o04', 104o51'. Chưa xác minh datum và vị trí.</description><Point><coordinates>104.850000000,19.066666667,0</coordinates></Point></Placemark><Placemark><name>Mường Hinh</name><description>Đồng Văn - Quế Phong | Tọa độ nguồn: 19o53', 105o07'. Chưa xác minh datum và vị trí.</description><Point><coordinates>105.116666667,19.883333333,0</coordinates></Point></Placemark><Placemark><name>Mỹ Lý</name><description>Mỹ Lý - Kỳ Sơn | Tọa độ nguồn: 19o38', 104o20'. Chưa xác minh datum và vị trí.</description><Point><coordinates>104.333333333,19.633333333,0</coordinates></Point></Placemark><Placemark><name>Tân Kỳ</name><description>Tân Long- Tân Kỳ | Tọa độ nguồn: 19o04', 105o16'. Chưa xác minh datum và vị trí.</description><Point><coordinates>105.266666667,19.066666667,0</coordinates></Point></Placemark><Placemark><name>Thác Muối</name><description>Hạnh Lâm - Thanh Chương | Tọa độ nguồn: 18o49', 105o09'. Chưa xác minh datum và vị trí.</description><Point><coordinates>105.150000000,18.816666667,0</coordinates></Point></Placemark><Placemark><name>Cốc Nà</name><description>Châu Khê - Con Cuông | Tọa độ nguồn: 19o05', 104o45'. Chưa xác minh datum và vị trí.</description><Point><coordinates>104.750000000,19.083333333,0</coordinates></Point></Placemark><Placemark><name>Sơn Diệm</name><description>Sơn Diệm - Hương Sơn | Tọa độ nguồn: 18o30', 105o21'. Chưa xác minh datum và vị trí.</description><Point><coordinates>105.350000000,18.500000000,0</coordinates></Point></Placemark><Placemark><name>Hoà Duyệt</name><description>Đức Liên - Đức Thọ | Tọa độ nguồn: 18o22', 105o35'. Chưa xác minh datum và vị trí.</description><Point><coordinates>105.583333333,18.366666667,0</coordinates></Point></Placemark><Placemark><name>Chu Lễ</name><description>Hương Thuỷ - Hương Khê | Tọa độ nguồn: 18o13', 105o42'. Chưa xác minh datum và vị trí.</description><Point><coordinates>105.700000000,18.216666667,0</coordinates></Point></Placemark><Placemark><name>Cẩm Nhượng</name><description>Cẩm Nhượng- Cẩm Xuyên | Tọa độ nguồn: 18o15', 106o06'. Chưa xác minh datum và vị trí.</description><Point><coordinates>106.100000000,18.250000000,0</coordinates></Point></Placemark><Placemark><name>Linh Cảm</name><description>Tùng ảnh - Đức Thọ | Tọa độ nguồn: 18o32', 105o33'. Chưa xác minh datum và vị trí.</description><Point><coordinates>105.550000000,18.533333333,0</coordinates></Point></Placemark><Placemark><name>Thạch Đồng</name><description>Thạch Đồng - Thạch Hà | Tọa độ nguồn: 18o20', 105o54'. Chưa xác minh datum và vị trí.</description><Point><coordinates>105.900000000,18.333333333,0</coordinates></Point></Placemark><Placemark><name>Hương Đại</name><description>Hương Đại - Vũ Quang | Tọa độ nguồn: 18o24', 105o31'. Chưa xác minh datum và vị trí.</description><Point><coordinates>105.516666667,18.400000000,0</coordinates></Point></Placemark><Placemark><name>Đồng Tâm</name><description>Thuận Hoá - Tuyên Hoá | Tọa độ nguồn: 17o54', 106o01'. Chưa xác minh datum và vị trí.</description><Point><coordinates>106.016666667,17.900000000,0</coordinates></Point></Placemark><Placemark><name>Kiến Giang</name><description>Xã Kim Thuỷ - Lệ Thuỷ | Tọa độ nguồn: 17o07', 106o45'. Chưa xác minh datum và vị trí.</description><Point><coordinates>106.750000000,17.116666667,0</coordinates></Point></Placemark><Placemark><name>Lệ Thuỷ</name><description>Xuân Thuỷ - Lệ Thuỷ | Tọa độ nguồn: 17o13', 106o47'. Chưa xác minh datum và vị trí.</description><Point><coordinates>106.783333333,17.216666667,0</coordinates></Point></Placemark><Placemark><name>Tân Mỹ</name><description>Quảng Phúc- Quảng Trạch | Tọa độ nguồn: 17o42', 106o28'. Chưa xác minh datum và vị trí.</description><Point><coordinates>106.466666667,17.700000000,0</coordinates></Point></Placemark><Placemark><name>Mai Hoá</name><description>Mai Hoá - Tuyên Hóa | Tọa độ nguồn: 17o48', 106o11'. Chưa xác minh datum và vị trí.</description><Point><coordinates>106.183333333,17.800000000,0</coordinates></Point></Placemark><Placemark><name>Đồng Hới</name><description>P.Đồng Mỹ - TX Đồng Hơí | Tọa độ nguồn: 17o28', 106o37'. Chưa xác minh datum và vị trí.</description><Point><coordinates>106.616666667,17.466666667,0</coordinates></Point></Placemark><Placemark><name>Tân Lâm</name><description>Ngư Hoà - Tuyên Hoá | Tọa độ nguồn: 17o54', 106o13'. Chưa xác minh datum và vị trí.</description><Point><coordinates>106.216666667,17.900000000,0</coordinates></Point></Placemark><Placemark><name>Long Đại</name><description>Trường Sơn - Quảng Ninh | Tọa độ nguồn: 17o14', 106o19'. Chưa xác minh datum và vị trí.</description><Point><coordinates>106.316666667,17.233333333,0</coordinates></Point></Placemark><Placemark><name>Phong Nha</name><description>Sơn Trạch - Bố Trạch | Tọa độ nguồn: 17o37', 106o19'. Chưa xác minh datum và vị trí.</description><Point><coordinates>106.316666667,17.616666667,0</coordinates></Point></Placemark><Placemark><name>Gia Vòng</name><description>Vĩnh Tường - Gio Linh | Tọa độ nguồn: 16o57', 106o56'. Chưa xác minh datum và vị trí.</description><Point><coordinates>106.933333333,16.950000000,0</coordinates></Point></Placemark><Placemark><name>Đông Hà</name><description>Phường 3 - TX Đông Hà | Tọa độ nguồn: 16o50', 107o06'. Chưa xác minh datum và vị trí.</description><Point><coordinates>107.100000000,16.833333333,0</coordinates></Point></Placemark><Placemark><name>Đầu Màu</name><description>Cam Tuyền -  Cam Lộ | Tọa độ nguồn: 16o47', 106o53'. Chưa xác minh datum và vị trí.</description><Point><coordinates>106.883333333,16.783333333,0</coordinates></Point></Placemark><Placemark><name>Cửa Việt</name><description>Do Việt - Do Linh | Tọa độ nguồn: 16o53', 107o10'. Chưa xác minh datum và vị trí.</description><Point><coordinates>107.166666667,16.883333333,0</coordinates></Point></Placemark><Placemark><name>Thạch Hãn</name><description>Phường 2 - T.X. Quảng Trị  | Tọa độ nguồn: 16o45', 107o14'. Chưa xác minh datum và vị trí.</description><Point><coordinates>107.233333333,16.750000000,0</coordinates></Point></Placemark><Placemark><name>Hiền Lương</name><description>Vĩnh Giang - Vĩnh Linh | Tọa độ nguồn: 17o00', 107o05'. Chưa xác minh datum và vị trí.</description><Point><coordinates>107.083333333,17.000000000,0</coordinates></Point></Placemark><Placemark><name>Hải Tân</name><description>Hải Tân - Hải Lăng | Tọa độ nguồn: 16o41', 107o19'. Chưa xác minh datum và vị trí.</description><Point><coordinates>107.316666667,16.683333333,0</coordinates></Point></Placemark><Placemark><name>Dak Krông</name><description>Dak Krông - Dak Krông | Tọa độ nguồn: 16o40', 106o51'. Chưa xác minh datum và vị trí.</description><Point><coordinates>106.850000000,16.666666667,0</coordinates></Point></Placemark><Placemark><name>Thượng Nhật</name><description>Thượng Nhật - Nam Đông | Tọa độ nguồn: 16o07', 107o41'. Chưa xác minh datum và vị trí.</description><Point><coordinates>107.683333333,16.116666667,0</coordinates></Point></Placemark><Placemark><name>Phú ốc</name><description>Tứ Hạ - Hương Trà | Tọa độ nguồn: 16o32', 107o28'. Chưa xác minh datum và vị trí.</description><Point><coordinates>107.466666667,16.533333333,0</coordinates></Point></Placemark><Placemark><name>Kim Long</name><description>Phùng Đức - T.P. Huế | Tọa độ nguồn: 16o25', 107o34'. Chưa xác minh datum và vị trí.</description><Point><coordinates>107.566666667,16.416666667,0</coordinates></Point></Placemark><Placemark><name>Cổ Bi (Phong Sơn)</name><description>Phong Sơn - Phong Điền | Tọa độ nguồn: 16o26', 107o24'. Chưa xác minh datum và vị trí.</description><Point><coordinates>107.400000000,16.433333333,0</coordinates></Point></Placemark><Placemark><name>Bình Điền</name><description>Bình Điền - Hương Trà | Tọa độ nguồn: 16o21', 107o31'. Chưa xác minh datum và vị trí.</description><Point><coordinates>107.516666667,16.350000000,0</coordinates></Point></Placemark><Placemark><name>Thành Mỹ</name><description>Thành Mỹ - Huyện Giằng | Tọa độ nguồn: 15o46', 107o50'. Chưa xác minh datum và vị trí.</description><Point><coordinates>107.833333333,15.766666667,0</coordinates></Point></Placemark><Placemark><name>Nông Sơn</name><description>Quế Ninh - Quế Sơn | Tọa độ nguồn: 15o42', 108o03'. Chưa xác minh datum và vị trí.</description><Point><coordinates>108.050000000,15.700000000,0</coordinates></Point></Placemark><Placemark><name>Hiệp Đức</name><description>Tân An - Hiệp Đức | Tọa độ nguồn: 15o35', 108o07'. Chưa xác minh datum và vị trí.</description><Point><coordinates>108.116666667,15.583333333,0</coordinates></Point></Placemark><Placemark><name>Ái Nghĩa</name><description> Xã Đại Phước - Đại Lộc | Tọa độ nguồn: 15o53', 108o07'. Chưa xác minh datum và vị trí.</description><Point><coordinates>108.116666667,15.883333333,0</coordinates></Point></Placemark><Placemark><name>Giao Thuỷ</name><description>Duy Châu - Duy Xuyên | Tọa độ nguồn: 15o46', 108o01'. Chưa xác minh datum và vị trí.</description><Point><coordinates>108.016666667,15.766666667,0</coordinates></Point></Placemark><Placemark><name>Hội An</name><description>P.Sơn Phong - T.X.Hội An | Tọa độ nguồn: 15o52', 108o20'. Chưa xác minh datum và vị trí.</description><Point><coordinates>108.333333333,15.866666667,0</coordinates></Point></Placemark><Placemark><name>Câu Lâu</name><description>Tiện Rươu - Duy Xuyên | Tọa độ nguồn: 15o51', 108o17'. Chưa xác minh datum và vị trí.</description><Point><coordinates>108.283333333,15.850000000,0</coordinates></Point></Placemark><Placemark><name>Hội Khách</name><description> Đại Hồng - Huyện Đại Lộc | Tọa độ nguồn: 15o49', 107o49'. Chưa xác minh datum và vị trí.</description><Point><coordinates>107.816666667,15.816666667,0</coordinates></Point></Placemark><Placemark><name>Hiên</name><description>T.T Prao - Đông Giang | Tọa độ nguồn: 15o56', 107o39'. Chưa xác minh datum và vị trí.</description><Point><coordinates>107.650000000,15.933333333,0</coordinates></Point></Placemark><Placemark><name>Khâm Đức</name><description>Khâm Đức - Phước Sơn | Tọa độ nguồn: 15o26', 107o50'. Chưa xác minh datum và vị trí.</description><Point><coordinates>107.833333333,15.433333333,0</coordinates></Point></Placemark><Placemark><name>Cẩm Lệ</name><description> Hoà Thọ - Hoà Vang | Tọa độ nguồn: 16o02', 108o12'. Chưa xác minh datum và vị trí.</description><Point><coordinates>108.200000000,16.033333333,0</coordinates></Point></Placemark><Placemark><name>An Chỉ</name><description>Hành Phước - Nghĩa Hành | Tọa độ nguồn: 14o58', 108o48'. Chưa xác minh datum và vị trí.</description><Point><coordinates>108.800000000,14.966666667,0</coordinates></Point></Placemark><Placemark><name>Sơn Hà</name><description>T.T.Sơn Hà - Sơn Hà | Tọa độ nguồn: 14o53', 108o32'. Chưa xác minh datum và vị trí.</description><Point><coordinates>108.533333333,14.883333333,0</coordinates></Point></Placemark><Placemark><name>Sơn Giang</name><description> Sơn Giang - Sơn Hà | Tọa độ nguồn: 15o08', 108o31'. Chưa xác minh datum và vị trí.</description><Point><coordinates>108.516666667,15.133333333,0</coordinates></Point></Placemark><Placemark><name>Trà Khúc</name><description>Huyện Sơn Tịnh | Tọa độ nguồn: 15o08', 108o47'. Chưa xác minh datum và vị trí.</description><Point><coordinates>108.783333333,15.133333333,0</coordinates></Point></Placemark><Placemark><name>Châu ổ</name><description>T.T Châu ổ - Bình Sơn | Tọa độ nguồn: 15o18', 108o45'. Chưa xác minh datum và vị trí.</description><Point><coordinates>108.750000000,15.300000000,0</coordinates></Point></Placemark><Placemark><name>Trà Bồng</name><description>Trà Xuân - Trà Bồng | Tọa độ nguồn: 15o17', 108o38'. Chưa xác minh datum và vị trí.</description><Point><coordinates>108.633333333,15.283333333,0</coordinates></Point></Placemark><Placemark><name>An Hoà</name><description> An Hoà - An Lão | Tọa độ nguồn: 13o56', 108o54'. Chưa xác minh datum và vị trí.</description><Point><coordinates>108.900000000,13.933333333,0</coordinates></Point></Placemark><Placemark><name>Bình Tường</name><description> Bình Tường - Tây Sơn | Tọa độ nguồn: 13o56', 108o52'. Chưa xác minh datum và vị trí.</description><Point><coordinates>108.866666667,13.933333333,0</coordinates></Point></Placemark><Placemark><name>Vĩnh Sơn</name><description>Vĩnh Sơn - Vĩnh Thạnh | Tọa độ nguồn: 14o18', 108o46'. Chưa xác minh datum và vị trí.</description><Point><coordinates>108.766666667,14.300000000,0</coordinates></Point></Placemark><Placemark><name>Ninh Hoà</name><description> Ninh Hiệp - Ninh Hoà | Tọa độ nguồn: 12o30', 109o07'. Chưa xác minh datum và vị trí.</description><Point><coordinates>109.116666667,12.500000000,0</coordinates></Point></Placemark><Placemark><name>Đồng Trăng</name><description>Diên Thọ - Diên Khánh | Tọa độ nguồn: 12o17', 108o56'. Chưa xác minh datum và vị trí.</description><Point><coordinates>108.933333333,12.283333333,0</coordinates></Point></Placemark><Placemark><name>Nha Trang</name><description>Diên Phú - Diên Khánh | Tọa độ nguồn: 12o18', 109o08'. Chưa xác minh datum và vị trí.</description><Point><coordinates>109.133333333,12.300000000,0</coordinates></Point></Placemark><Placemark><name>Củng Sơn</name><description>Sơn Bình - Sơn Hoà | Tọa độ nguồn: 13o02', 108o59'. Chưa xác minh datum và vị trí.</description><Point><coordinates>108.983333333,13.033333333,0</coordinates></Point></Placemark><Placemark><name>Hà Bằng</name><description>Xuân Sơn - Đồng Xuân | Tọa độ nguồn: 13o21', 109o07'. Chưa xác minh datum và vị trí.</description><Point><coordinates>109.116666667,13.350000000,0</coordinates></Point></Placemark><Placemark><name>Phú Lâm</name><description>Thị xã Tuy Hoà - Tuy Hoà | Tọa độ nguồn: 13o04', 109o18'. Chưa xác minh datum và vị trí.</description><Point><coordinates>109.300000000,13.066666667,0</coordinates></Point></Placemark><Placemark><name>Sông Hinh</name><description>Đức Bình Đông- Sông Hinh | Tọa độ nguồn: 13o01', 108o58'. Chưa xác minh datum và vị trí.</description><Point><coordinates>108.966666667,13.016666667,0</coordinates></Point></Placemark><Placemark><name>Tân Mỹ</name><description> Mỹ Sơn - Ninh Sơn | Tọa độ nguồn: 11o50', 108o48'. Chưa xác minh datum và vị trí.</description><Point><coordinates>108.800000000,11.833333333,0</coordinates></Point></Placemark><Placemark><name>Tà Pao</name><description>Đồng Kho - Tánh Linh | Tọa độ nguồn: 11o08', 107o43'. Chưa xác minh datum và vị trí.</description><Point><coordinates>107.716666667,11.133333333,0</coordinates></Point></Placemark><Placemark><name>Sông Luỹ</name><description>Suối Nhum - Bắc Bình | Tọa độ nguồn: 11o12', 108o20'. Chưa xác minh datum và vị trí.</description><Point><coordinates>108.333333333,11.200000000,0</coordinates></Point></Placemark><Placemark><name>Tân Minh</name><description>Tân Minh - Hàm Tân | Tọa độ nguồn: 10o48', 107o38'. Chưa xác minh datum và vị trí.</description><Point><coordinates>107.633333333,10.800000000,0</coordinates></Point></Placemark><Placemark><name>Đắc Mốt</name><description>Tân Cảnh - Đắc Tô | Tọa độ nguồn: 14045', 107046'. Chưa xác minh datum và vị trí.</description><Point><coordinates>107.766666667,14.750000000,0</coordinates></Point></Placemark><Placemark><name>ComPlông</name><description>Tân Lập - ComPlông | Tọa độ nguồn: 14028', 108008'. Chưa xác minh datum và vị trí.</description><Point><coordinates>108.133333333,14.466666667,0</coordinates></Point></Placemark><Placemark><name>Kon Tum</name><description>Thắng Lợi - TX Kon Tum | Tọa độ nguồn: 14o20', 108o01'. Chưa xác minh datum và vị trí.</description><Point><coordinates>108.016666667,14.333333333,0</coordinates></Point></Placemark><Placemark><name>Đắc Tô</name><description>Tân Cảnh - Đắc Tô | Tọa độ nguồn: 14o32', 107o50'. Chưa xác minh datum và vị trí.</description><Point><coordinates>107.833333333,14.533333333,0</coordinates></Point></Placemark><Placemark><name>Mơ Ray</name><description>Mơ Ray - Sa Thầy | Tọa độ nguồn: 14o20', 107o30'. Chưa xác minh datum và vị trí.</description><Point><coordinates>107.500000000,14.333333333,0</coordinates></Point></Placemark><Placemark><name>Đắc Nghé</name><description>Đắc Ruồng - KonPlông | Tọa độ nguồn: 14o30', 108o12'. Chưa xác minh datum và vị trí.</description><Point><coordinates>108.200000000,14.500000000,0</coordinates></Point></Placemark><Placemark><name>An Khê</name><description>Thị trấn An Khê | Tọa độ nguồn: 13o57', 108o39'. Chưa xác minh datum và vị trí.</description><Point><coordinates>108.650000000,13.950000000,0</coordinates></Point></Placemark><Placemark><name>AyunPa</name><description>Phú Hoà - Ayunpa | Tọa độ nguồn: 13o28', 108o28'. Chưa xác minh datum và vị trí.</description><Point><coordinates>108.466666667,13.466666667,0</coordinates></Point></Placemark><Placemark><name>Pơ Mơ Rê</name><description>H'va - Mang Giang | Tọa độ nguồn: 14o02', 108o21'. Chưa xác minh datum và vị trí.</description><Point><coordinates>108.350000000,14.033333333,0</coordinates></Point></Placemark><Placemark><name>Ia Mrơn</name><description>Ia Mrơn - Ayunpa | Tọa độ nguồn: 13o28', 108o25'. Chưa xác minh datum và vị trí.</description><Point><coordinates>108.416666667,13.466666667,0</coordinates></Point></Placemark><Placemark><name>Ia Mơ</name><description>Ia Mơ - Chư Prông | Tọa độ nguồn: 13o23', 107o11'. Chưa xác minh datum và vị trí.</description><Point><coordinates>107.183333333,13.383333333,0</coordinates></Point></Placemark><Placemark><name>Ia Bông</name><description>Ia Puk - Chư Prông | Tọa độ nguồn: 13o35', 107o45'. Chưa xác minh datum và vị trí.</description><Point><coordinates>107.750000000,13.583333333,0</coordinates></Point></Placemark><Placemark><name>Yang Nam</name><description>Yang Nam - Krông Chro | Tọa độ nguồn: 13o34', 108o31'. Chưa xác minh datum và vị trí.</description><Point><coordinates>108.516666667,13.566666667,0</coordinates></Point></Placemark><Placemark><name>Chư Drăm</name><description>Chư Drăm - Krông Pa | Tọa độ nguồn: 13o14', 108o40'. Chưa xác minh datum và vị trí.</description><Point><coordinates>108.666666667,13.233333333,0</coordinates></Point></Placemark><Placemark><name>Giang Sơn</name><description>Hoà Hiệp - Krông Ana | Tọa độ nguồn: 12o30', 108o12'. Chưa xác minh datum và vị trí.</description><Point><coordinates>108.200000000,12.500000000,0</coordinates></Point></Placemark><Placemark><name>Krông Buk</name><description>Krông Buk - Krông Bak | Tọa độ nguồn: 12o45', 108o25'. Chưa xác minh datum và vị trí.</description><Point><coordinates>108.416666667,12.750000000,0</coordinates></Point></Placemark><Placemark><name>Bản Đôn</name><description>Krông Ana - Easoup | Tọa độ nguồn: 12o54', 107o46'. Chưa xác minh datum và vị trí.</description><Point><coordinates>107.766666667,12.900000000,0</coordinates></Point></Placemark><Placemark><name>Krông Knô</name><description>Krông Knô - Lắk | Tọa độ nguồn: 12o12', 108o09'. Chưa xác minh datum và vị trí.</description><Point><coordinates>108.150000000,12.200000000,0</coordinates></Point></Placemark><Placemark><name>Ea Lê</name><description>Ya Tờ mốt - Ea Súp | Tọa độ nguồn: 13o29', 107o47'. Chưa xác minh datum và vị trí.</description><Point><coordinates>107.783333333,13.483333333,0</coordinates></Point></Placemark><Placemark><name>Cầu 14</name><description>Cư Jút - TX Buôn Mê Thuột | Tọa độ nguồn: 12o36', 107o56'. Chưa xác minh datum và vị trí.</description><Point><coordinates>107.933333333,12.600000000,0</coordinates></Point></Placemark><Placemark><name>Đắc Nông</name><description>Gia Nghĩa - Đắc Nông | Tọa độ nguồn: 12o00', 107o41'. Chưa xác minh datum và vị trí.</description><Point><coordinates>107.683333333,12.000000000,0</coordinates></Point></Placemark><Placemark><name>Đức Xuyên</name><description>Quảng Phú - Krông Kno | Tọa độ nguồn: 12o17', 107o59'. Chưa xác minh datum và vị trí.</description><Point><coordinates>107.983333333,12.283333333,0</coordinates></Point></Placemark><Placemark><name>Thanh Bình</name><description>Bình Thanh - Đức Trọng | Tọa độ nguồn: 11o47', 108o17'. Chưa xác minh datum và vị trí.</description><Point><coordinates>108.283333333,11.783333333,0</coordinates></Point></Placemark><Placemark><name>Đại Nga</name><description>Lộc An - Bảo Lộc | Tọa độ nguồn: 11o32', 107o52'. Chưa xác minh datum và vị trí.</description><Point><coordinates>107.866666667,11.533333333,0</coordinates></Point></Placemark><Placemark><name>Đại Ninh</name><description>Phú Hội - Đức Trọng | Tọa độ nguồn: 11o39', 108o18'. Chưa xác minh datum và vị trí.</description><Point><coordinates>108.300000000,11.650000000,0</coordinates></Point></Placemark><Placemark><name>Đình Lạc</name><description>Đình Lạc - Di Linh | Tọa độ nguồn: 11o34', 108o04'. Chưa xác minh datum và vị trí.</description><Point><coordinates>108.066666667,11.566666667,0</coordinates></Point></Placemark><Placemark><name>Lộc Bắc</name><description>Lộc Bắc- Bảo Lâm | Tọa độ nguồn: 11o50', 107o35'. Chưa xác minh datum và vị trí.</description><Point><coordinates>107.583333333,11.833333333,0</coordinates></Point></Placemark><Placemark><name>Tân Lập</name><description>Tân Lập - Đồng Phú | Tọa độ nguồn: 11o20', 107o00'. Chưa xác minh datum và vị trí.</description><Point><coordinates>107.000000000,11.333333333,0</coordinates></Point></Placemark><Placemark><name>Minh Đức</name><description>Minh Đức - Bình Long | Tọa độ nguồn: 11o35', 106o26'. Chưa xác minh datum và vị trí.</description><Point><coordinates>106.433333333,11.583333333,0</coordinates></Point></Placemark><Placemark><name>Đắc RLáp</name><description>Đoàn Kết - Bù Đăngc | Tọa độ nguồn: 11o50', 107o13'. Chưa xác minh datum và vị trí.</description><Point><coordinates>107.216666667,11.833333333,0</coordinates></Point></Placemark><Placemark><name>Phước Hoà</name><description>Phước Hoà - Tân Uyên | Tọa độ nguồn: 11o14', 106o46'. Chưa xác minh datum và vị trí.</description><Point><coordinates>106.766666667,11.233333333,0</coordinates></Point></Placemark><Placemark><name>Thủ Dầu Một</name><description>Thủ Dầu I - Bình Dương | Tọa độ nguồn: 10o59', 106o39'. Chưa xác minh datum và vị trí.</description><Point><coordinates>106.650000000,10.983333333,0</coordinates></Point></Placemark><Placemark><name>Dầu Tiếng</name><description>Dầu Tiếng - Bến Cát | Tọa độ nguồn: 11o19', 106o21'. Chưa xác minh datum và vị trí.</description><Point><coordinates>106.350000000,11.316666667,0</coordinates></Point></Placemark><Placemark><name>Cần Đăng</name><description>Thạnh Tây - Tân Biên | Tọa độ nguồn: 11o32', 106o00'. Chưa xác minh datum và vị trí.</description><Point><coordinates>106.000000000,11.533333333,0</coordinates></Point></Placemark><Placemark><name>Gò Dầu Hạ</name><description>Khu phố III - T.T. Gò Dầu | Tọa độ nguồn: 11o05', 106o16'. Chưa xác minh datum và vị trí.</description><Point><coordinates>106.266666667,11.083333333,0</coordinates></Point></Placemark><Placemark><name>Phú An</name><description>P Bến Nghé - Quận I | Tọa độ nguồn: 10o46', 106o42'. Chưa xác minh datum và vị trí.</description><Point><coordinates>106.700000000,10.766666667,0</coordinates></Point></Placemark><Placemark><name>Nhà Bè</name><description>Thành phố Hồ Chí Minh | Tọa độ nguồn: 10o41', 106o47'. Chưa xác minh datum và vị trí.</description><Point><coordinates>106.783333333,10.683333333,0</coordinates></Point></Placemark><Placemark><name>Thị Vải</name><description>Thạch An - Cần Giờ | Tọa độ nguồn: 10o34', 107o03'. Chưa xác minh datum và vị trí.</description><Point><coordinates>107.050000000,10.566666667,0</coordinates></Point></Placemark><Placemark><name>Soài Rạp</name><description>Lý Nhơn - Cần Giờ | Tọa độ nguồn: 10o30', 106o46'. Chưa xác minh datum và vị trí.</description><Point><coordinates>106.766666667,10.500000000,0</coordinates></Point></Placemark><Placemark><name>Biên Hoà</name><description>P. Quyết Thắng - Biên Hoà | Tọa độ nguồn: 10o56', 106o49'. Chưa xác minh datum và vị trí.</description><Point><coordinates>106.816666667,10.933333333,0</coordinates></Point></Placemark><Placemark><name>Tà Lài</name><description>Tà Lài - Tân Phú | Tọa độ nguồn: 11o22', 107o22'. Chưa xác minh datum và vị trí.</description><Point><coordinates>107.366666667,11.366666667,0</coordinates></Point></Placemark><Placemark><name>Mỹ Tho</name><description>Đường 30-4 - Mỹ Tho | Tọa độ nguồn: 10o21', 106o22'. Chưa xác minh datum và vị trí.</description><Point><coordinates>106.366666667,10.350000000,0</coordinates></Point></Placemark><Placemark><name>Vàm Kênh</name><description>Tân Thành - Gò Công Đông | Tọa độ nguồn: 10o16', 106o44'. Chưa xác minh datum và vị trí.</description><Point><coordinates>106.733333333,10.266666667,0</coordinates></Point></Placemark><Placemark><name>Hoà Bình</name><description>Vĩnh Hựu - Gò Công Tây | Tọa độ nguồn: 10o17', 106o35'. Chưa xác minh datum và vị trí.</description><Point><coordinates>106.583333333,10.283333333,0</coordinates></Point></Placemark><Placemark><name>Cai Lậy</name><description>Thị trấn Cai Lậy - Cai Lậy | Tọa độ nguồn: 10o25', 106o03'. Chưa xác minh datum và vị trí.</description><Point><coordinates>106.050000000,10.416666667,0</coordinates></Point></Placemark><Placemark><name>Long Định</name><description> Long Định - Châu Thành | Tọa độ nguồn: 10o20', 106o15'. Chưa xác minh datum và vị trí.</description><Point><coordinates>106.250000000,10.333333333,0</coordinates></Point></Placemark><Placemark><name>Hoà Hưng</name><description>Phước Hưng | Tọa độ nguồn: 10o32', 107o10'. Chưa xác minh datum và vị trí.</description><Point><coordinates>107.166666667,10.533333333,0</coordinates></Point></Placemark><Placemark><name>Bông Trang</name><description>Bông Trang | Tọa độ nguồn: 10o33', 107o20'. Chưa xác minh datum và vị trí.</description><Point><coordinates>107.333333333,10.550000000,0</coordinates></Point></Placemark><Placemark><name>Tân An</name><description>Thị xã Tân An | Tọa độ nguồn: 10o32', 106o25'. Chưa xác minh datum và vị trí.</description><Point><coordinates>106.416666667,10.533333333,0</coordinates></Point></Placemark><Placemark><name>Bến Lức</name><description>Thị trấn Bến Lức - Bến Lức | Tọa độ nguồn: 10o38', 106o28'. Chưa xác minh datum và vị trí.</description><Point><coordinates>106.466666667,10.633333333,0</coordinates></Point></Placemark><Placemark><name>Mộc Hoá</name><description>Thị trấn Mộc Hoá | Tọa độ nguồn: 10o46', 105o56'. Chưa xác minh datum và vị trí.</description><Point><coordinates>105.933333333,10.766666667,0</coordinates></Point></Placemark><Placemark><name>Tuyên Nhơn</name><description>T.Trấn Thạnh Hoá | Tọa độ nguồn: 10o39', 106o11'. Chưa xác minh datum và vị trí.</description><Point><coordinates>106.183333333,10.650000000,0</coordinates></Point></Placemark><Placemark><name>Kiến Bình</name><description>Tân Thạnh - Tân Thạnh | Tọa độ nguồn: 10o36', 105o02'. Chưa xác minh datum và vị trí.</description><Point><coordinates>105.033333333,10.600000000,0</coordinates></Point></Placemark><Placemark><name>Cầu Nổi</name><description>Tân An - Cần Đước | Tọa độ nguồn: 10o28', 106o34'. Chưa xác minh datum và vị trí.</description><Point><coordinates>106.566666667,10.466666667,0</coordinates></Point></Placemark><Placemark><name>Cao Lãnh</name><description>Phường 6 - Cao Lãnh | Tọa độ nguồn: 10o27', 105o38'. Chưa xác minh datum và vị trí.</description><Point><coordinates>105.633333333,10.450000000,0</coordinates></Point></Placemark><Placemark><name>Trường Xuân</name><description>Trường Xuân - Tháp Mười | Tọa độ nguồn: 10046', 105047'. Chưa xác minh datum và vị trí.</description><Point><coordinates>105.783333333,10.766666667,0</coordinates></Point></Placemark><Placemark><name>Tân Thành</name><description>Tân Thành A - Tân Hồng | Tọa độ nguồn: 10o50', 105o35'. Chưa xác minh datum và vị trí.</description><Point><coordinates>105.583333333,10.833333333,0</coordinates></Point></Placemark><Placemark><name>Hồng Ngự</name><description>An Bình A - Hồng Ngự | Tọa độ nguồn: 10o47', 105o01'. Chưa xác minh datum và vị trí.</description><Point><coordinates>105.016666667,10.783333333,0</coordinates></Point></Placemark><Placemark><name>Phú Ninh</name><description>Phú Ninh - Tam Nông | Tọa độ nguồn: 10o42', 105o03'. Chưa xác minh datum và vị trí.</description><Point><coordinates>105.050000000,10.700000000,0</coordinates></Point></Placemark><Placemark><name>Phong Mỹ</name><description>Phong Mỹ - Cao Lãnh | Tọa độ nguồn: 10o31', 105o35'. Chưa xác minh datum và vị trí.</description><Point><coordinates>105.583333333,10.516666667,0</coordinates></Point></Placemark><Placemark><name>Mỹ An</name><description>Mỹ An - Tháp Mười | Tọa độ nguồn: 10o29', 105o52'. Chưa xác minh datum và vị trí.</description><Point><coordinates>105.866666667,10.483333333,0</coordinates></Point></Placemark><Placemark><name>Rạch Giá</name><description>P.Vĩnh Thanh - Rạch Giá  | Tọa độ nguồn: 10o00', 105o05'. Chưa xác minh datum và vị trí.</description><Point><coordinates>105.083333333,10.000000000,0</coordinates></Point></Placemark><Placemark><name>Tân Hiệp</name><description>Thạnh Đông B - Tân Hiệp | Tọa độ nguồn: 10o05', 105o15'. Chưa xác minh datum và vị trí.</description><Point><coordinates>105.250000000,10.083333333,0</coordinates></Point></Placemark><Placemark><name>Xẻo Rô</name><description>Tây Yên - An Biên | Tọa độ nguồn: 9o52', 105o06'. Chưa xác minh datum và vị trí.</description><Point><coordinates>105.100000000,9.866666667,0</coordinates></Point></Placemark><Placemark><name>Giang Thành</name><description>Tân Khánh Hoà - Kiên Lương | Tọa độ nguồn: 10o30', 104o36'. Chưa xác minh datum và vị trí.</description><Point><coordinates>104.600000000,10.500000000,0</coordinates></Point></Placemark><Placemark><name>Hòn Đất</name><description>Nam Thái Sơn - Hòn Đất | Tọa độ nguồn: 10o13', 104o55'. Chưa xác minh datum và vị trí.</description><Point><coordinates>104.916666667,10.216666667,0</coordinates></Point></Placemark><Placemark><name>Long Xuyên</name><description>P Mĩ Bình- TX Long Xuyên | Tọa độ nguồn: 10o23', 105o27'. Chưa xác minh datum và vị trí.</description><Point><coordinates>105.450000000,10.383333333,0</coordinates></Point></Placemark><Placemark><name>Chợ Mới</name><description>Ấp 1- Thị trấn Chợ Mới | Tọa độ nguồn: 10o25', 105o33'. Chưa xác minh datum và vị trí.</description><Point><coordinates>105.550000000,10.416666667,0</coordinates></Point></Placemark><Placemark><name>Vàm Nao</name><description>Tân Hoà - Phú Tân | Tọa độ nguồn: 10o36', 105o20'. Chưa xác minh datum và vị trí.</description><Point><coordinates>105.333333333,10.600000000,0</coordinates></Point></Placemark><Placemark><name>Tân Châu</name><description>Tân Châu - Phú Châu | Tọa độ nguồn: 10o48', 105o13'. Chưa xác minh datum và vị trí.</description><Point><coordinates>105.216666667,10.800000000,0</coordinates></Point></Placemark><Placemark><name>Châu Đốc</name><description>P.Châu Phú A - Châu Đốc | Tọa độ nguồn: 10o42', 105o06'. Chưa xác minh datum và vị trí.</description><Point><coordinates>105.100000000,10.700000000,0</coordinates></Point></Placemark><Placemark><name>Xuân Tô</name><description>Xuân Tô - Tịnh Biên | Tọa độ nguồn: 10o39', 105o00'. Chưa xác minh datum và vị trí.</description><Point><coordinates>105.000000000,10.650000000,0</coordinates></Point></Placemark><Placemark><name>Tri Tôn</name><description>Tà Đảnh - Tri Tôn | Tọa độ nguồn: 10o26', 105o03'. Chưa xác minh datum và vị trí.</description><Point><coordinates>105.050000000,10.433333333,0</coordinates></Point></Placemark><Placemark><name>Vĩnh Gia</name><description>Vĩnh Gia - Tri Tôn | Tọa độ nguồn: 10o30', 104o49'. Chưa xác minh datum và vị trí.</description><Point><coordinates>104.816666667,10.500000000,0</coordinates></Point></Placemark><Placemark><name>Mỹ Thuận</name><description>Tân Thuận Hưng - Tân Hoà Bắc | Tọa độ nguồn: 10o16', 105o54'. Chưa xác minh datum và vị trí.</description><Point><coordinates>105.900000000,10.266666667,0</coordinates></Point></Placemark><Placemark><name>Cái Vồn</name><description>Thuận An - Bình Minh | Tọa độ nguồn: 10o08', 105o49'. Chưa xác minh datum và vị trí.</description><Point><coordinates>105.816666667,10.133333333,0</coordinates></Point></Placemark><Placemark><name>Chợ Lách</name><description>Sơn Định - Chợ Lách | Tọa độ nguồn: 10o17', 106o07'. Chưa xác minh datum và vị trí.</description><Point><coordinates>106.116666667,10.283333333,0</coordinates></Point></Placemark><Placemark><name>Mỹ Hoá</name><description>Phường 7 - T.Xã Bến Tre | Tọa độ nguồn: 10o13', 106o20'. Chưa xác minh datum và vị trí.</description><Point><coordinates>106.333333333,10.216666667,0</coordinates></Point></Placemark><Placemark><name>An Thuận</name><description>An Thuỷ - Ba Tri | Tọa độ nguồn: 9o58', 106o36'. Chưa xác minh datum và vị trí.</description><Point><coordinates>106.600000000,9.966666667,0</coordinates></Point></Placemark><Placemark><name>Bình Đại</name><description>Bình Thắng - Bình Đại | Tọa độ nguồn: 10o11', 106o42'. Chưa xác minh datum và vị trí.</description><Point><coordinates>106.700000000,10.183333333,0</coordinates></Point></Placemark><Placemark><name>Bến Trại</name><description> An Thuận - Thanh Phúc | Tọa độ nguồn: 9o52', 106o31'. Chưa xác minh datum và vị trí.</description><Point><coordinates>106.516666667,9.866666667,0</coordinates></Point></Placemark><Placemark><name>Phú Long</name><description>Phú Long- Bình Đại | Tọa độ nguồn: 10o12', 106o34'. Chưa xác minh datum và vị trí.</description><Point><coordinates>106.566666667,10.200000000,0</coordinates></Point></Placemark><Placemark><name>Cần Thơ</name><description>P. Cát Khê - T.P Cần Thơ | Tọa độ nguồn: 10o02', 105o47'. Chưa xác minh datum và vị trí.</description><Point><coordinates>105.783333333,10.033333333,0</coordinates></Point></Placemark><Placemark><name>Phụng Hiệp</name><description>Phụng Hiệp - Phụng Hiệp | Tọa độ nguồn: 9o48', 105o09'. Chưa xác minh datum và vị trí.</description><Point><coordinates>105.150000000,9.800000000,0</coordinates></Point></Placemark><Placemark><name>Đại Ngải</name><description>Đại Ngải - Long Phù | Tọa độ nguồn: 9o48', 106o01'. Chưa xác minh datum và vị trí.</description><Point><coordinates>106.016666667,9.800000000,0</coordinates></Point></Placemark><Placemark><name>Mỹ Thanh</name><description>Trung Bình 7 - Long Phú | Tọa độ nguồn: 9o25', 105o10'. Chưa xác minh datum và vị trí.</description><Point><coordinates>105.166666667,9.416666667,0</coordinates></Point></Placemark><Placemark><name>Sóc Trăng</name><description>Lịch Hội Thượng - Long Phú | Tọa độ nguồn: 9o29', 106o11'. Chưa xác minh datum và vị trí.</description><Point><coordinates>106.183333333,9.483333333,0</coordinates></Point></Placemark><Placemark><name>Gành Hào</name><description>Thị trấn Gành Hào- Giá Rai | Tọa độ nguồn: 9o02', 105o24'. Chưa xác minh datum và vị trí.</description><Point><coordinates>105.400000000,9.033333333,0</coordinates></Point></Placemark><Placemark><name>Phước Long</name><description>Phước Long - Hồng Dân | Tọa độ nguồn: 9o26', 105o27'. Chưa xác minh datum và vị trí.</description><Point><coordinates>105.450000000,9.433333333,0</coordinates></Point></Placemark><Placemark><name>Năm Căn</name><description>Ngọc Hiển - Ngọc Hiển | Tọa độ nguồn: 8o46', 105o01'. Chưa xác minh datum và vị trí.</description><Point><coordinates>105.016666667,8.766666667,0</coordinates></Point></Placemark><Placemark><name>Bạc Liêu</name><description>P5 - Bạc Liêu | Tọa độ nguồn: 9o18', 105o44'. Chưa xác minh datum và vị trí.</description><Point><coordinates>105.733333333,9.300000000,0</coordinates></Point></Placemark><Placemark><name>Cà Mau</name><description>Phường 7 - Thị xã Cà Mau | Tọa độ nguồn: 9o10', 105o08'. Chưa xác minh datum và vị trí.</description><Point><coordinates>105.133333333,9.166666667,0</coordinates></Point></Placemark><Placemark><name>Sông Đốc</name><description>Thị trấn Ông Đốc - Cà Mau | Tọa độ nguồn: 9o02', 104o50'. Chưa xác minh datum và vị trí.</description><Point><coordinates>104.833333333,9.033333333,0</coordinates></Point></Placemark><Placemark><name>U Minh</name><description>Khánh Hoà - U Minh | Tọa độ nguồn: 9o32', 105o00'. Chưa xác minh datum và vị trí.</description><Point><coordinates>105.000000000,9.533333333,0</coordinates></Point></Placemark><Placemark><name>Vị Thanh</name><description>Vị Thanh - Vị Thanh | Tọa độ nguồn: 9o46', 105o27'. Chưa xác minh datum và vị trí.</description><Point><coordinates>105.450000000,9.766666667,0</coordinates></Point></Placemark><Placemark><name>Trà Vinh</name><description>Vĩnh Hưng - Long Đức | Tọa độ nguồn: 9o56', 106o20'. Chưa xác minh datum và vị trí.</description><Point><coordinates>106.333333333,9.933333333,0</coordinates></Point></Placemark><Placemark><name>Châu Thành</name><description>Đa Lộc - Châu Thành | Tọa độ nguồn: 9o53', 106o21'. Chưa xác minh datum và vị trí.</description><Point><coordinates>106.350000000,9.883333333,0</coordinates></Point></Placemark></Folder></Document></kml>